{
  "type": "FeatureCollection",
  "features": [
    {
      "type": "Feature",
      "properties": {
        "name": "万博公式ストア丸善日本橋店",
        "popupContent": "<b style='color:#2e7d32;'>【公開中】</b><br><b>【万博公式ストア丸善日本橋店】</b><br>📅 期間: 2026/02/10 ～ 常設<br>📝 万博公式ストア丸善日本橋店が開店。公式ライセンス商品がそろう店舗だよ！<br><br><a href='https://www.expo2025.or.jp/news/news-20260204-01-2/' target='_blank'>🔗 詳細を開く</a>",
        "category": "legacy",
        "isStore": true,
        "isKomyaku": false,
        "link": "https://www.expo2025.or.jp/news/news-20260204-01-2/",
        "image_url": "https://www.expo2025.or.jp/wp/wp-content/uploads/20260204.png"
      },
      "geometry": {
        "type": "Point",
        "coordinates": [
          139.7724794,
          35.68104246
        ]
      }
    },
    {
      "type": "Feature",
      "properties": {
        "name": "EARTH MARTの展示物「いのちのはかり」城宮跡歴史公園天平みつき館のちのはかり」",
        "popupContent": "<b style='color:#2e7d32;'>【公開中】</b><br><b>【EARTH MARTの展示物「いのちのはかり」城宮跡歴史公園天平みつき館のちのはかり」】</b><br>📅 期間: 2026/04/29 ～ 常設<br>📝 EARTH MARTの「いのちのはかり」を奈良の食の拠点づくりへ生かす取り組みです。<br><br><a href='https://www.pref.nara.lg.jp/n153/p034015.html' target='_blank'>🔗 詳細を開く</a>",
        "category": "legacy",
        "isStore": false,
        "isKomyaku": false,
        "link": "https://www.pref.nara.lg.jp/n153/p034015.html",
        "image_url": "https://www.pref.nara.lg.jp/shared/images/sns/logo.png"
      },
      "geometry": {
        "type": "Point",
        "coordinates": [
          135.7926651,
          34.68521696
        ]
      }
    },
    {
      "type": "Feature",
      "properties": {
        "name": "KDDI MUSEUM　体験型展示「Mirai Meeting」の展示物を万博のレガシーとして引き継いだ「Mirai Arcade」を展示",
        "popupContent": "<b style='color:#2e7d32;'>【公開中】</b><br><b>【KDDI MUSEUM　体験型展示「Mirai Meeting」の展示物を万博のレガシーとして引き継いだ「Mirai Arcade」を展示】</b><br>📅 期間: 2026/05/09 ～ 常設<br>📝 通信の歴史を学べるKDDI MUSEUMが、5月から毎月第2土曜日に開館します。<br><br><a href='https://prtimes.jp/main/html/rd/p/000000188.000097141.html' target='_blank'>🔗 詳細を開く</a>",
        "category": "legacy",
        "isStore": false,
        "isKomyaku": false,
        "link": "https://prtimes.jp/main/html/rd/p/000000188.000097141.html",
        "image_url": "https://prcdn.freetls.fastly.net/release_image/97141/188/97141-188-bdb4de867fe5720366b4575b93103dcc-1264x843.png?format=jpeg&auto=webp&fit=bounds&width=2400&height=1260"
      },
      "geometry": {
        "type": "Point",
        "coordinates": [
          139.4209648,
          35.61958788
        ]
      }
    },
    {
      "type": "Feature",
      "properties": {
        "name": "ワンハンドBENTO by ほっかほっか亭を常設出店",
        "popupContent": "<b style='color:#2e7d32;'>【公開中】</b><br><b>【ワンハンドBENTO by ほっかほっか亭を常設出店】</b><br>📅 期間: 2026/04/29 ～ 常設<br>📝 万博グルメで22万食を記録したワンハンドBENTOが常設店に登場！あべのハルカス近鉄本店 で気軽に味わえるよ！<br><br><a href='https://prtimes.jp/main/html/rd/p/000000231.000024682.html' target='_blank'>🔗 詳細を開く</a>",
        "category": "legacy",
        "isStore": false,
        "isKomyaku": false,
        "link": "https://prtimes.jp/main/html/rd/p/000000231.000024682.html",
        "image_url": "https://prcdn.freetls.fastly.net/release_image/24682/231/24682-231-0dc6eebfe424922f93cfcfb6a69691b5-1772x997.png?format=jpeg&auto=webp&fit=bounds&width=2400&height=1260"
      },
      "geometry": {
        "type": "Point",
        "coordinates": [
          135.5134794,
          34.64617844
        ]
      }
    },
    {
      "type": "Feature",
      "properties": {
        "name": "ATCから横浜へGREEN×EXPO 2027へつなぐ「カウントダウンクロック」始動！",
        "popupContent": "<b style='color:#2e7d32;'>【公開中】</b><br><b>【ATCから横浜へGREEN×EXPO 2027へつなぐ「カウントダウンクロック」始動！】</b><br>📅 期間: 2026/03/31 ～ 常設<br>📝 GREEN×EXPO 2027へつなぐ「環境・SDGｓ」をテーマにしたおおさかATCグリーンエコプラザ内の常設展示場です。<br><br><a href='https://prtimes.jp/main/html/rd/p/000000075.000068158.html' target='_blank'>🔗 詳細を開く</a>",
        "category": "legacy",
        "isStore": false,
        "isKomyaku": false,
        "link": "https://prtimes.jp/main/html/rd/p/000000075.000068158.html",
        "image_url": "https://prcdn.freetls.fastly.net/release_image/68158/75/68158-75-07b09b245f51637a106b1437bf3aeb36-3900x2925.jpg?format=jpeg&auto=webp&fit=bounds&width=2400&height=1260"
      },
      "geometry": {
        "type": "Point",
        "coordinates": [
          135.4112749,
          34.63807115
        ]
      }
    },
    {
      "type": "Feature",
      "properties": {
        "name": "（予定）『モンスターハンター ブリッジ』2027年度、淡路島『ニジゲンノモリ』へ移設",
        "popupContent": "<b style='color:#e67e22;'>【予定】</b><br><b>【『モンスターハンター ブリッジ』2027年度、淡路島『ニジゲンノモリ』へ移設】</b><br>📅 期間: 2027年予定 ～ 常設<br>📝 万博で延べ10万人以上が体験した人気のモンスターハンター ブリッジが、2027年度にニジゲンノモリへ移設される予定！<br><br><a href='https://prtimes.jp/main/html/rd/p/000002203.000016751.html' target='_blank'>🔗 詳細を開く</a>",
        "category": "legacy",
        "isStore": false,
        "isKomyaku": false,
        "link": "https://prtimes.jp/main/html/rd/p/000002203.000016751.html",
        "image_url": "https://prcdn.freetls.fastly.net/release_image/16751/2203/16751-2203-c043f3efb5d75db9b6e4569bd8a78349-3840x1920.jpg?format=jpeg&auto=webp&fit=bounds&width=2400&height=1260"
      },
      "geometry": {
        "type": "Point",
        "coordinates": [
          135.00081,
          34.57539824
        ]
      }
    },
    {
      "type": "Feature",
      "properties": {
        "name": "UAEパビリオンの友好のシンボル『パーゴラ』鳥取砂丘こどもの国に移設！",
        "popupContent": "<b style='color:#2e7d32;'>【公開中】</b><br><b>【UAEパビリオンの友好のシンボル『パーゴラ』鳥取砂丘こどもの国に移設！】</b><br>📅 期間: 2026/03/31 ～ 常設<br>📝 ～鳥取から世界の平和を発信～大阪・関西万博UAEパビリオンの友好のシンボル「パーゴラ」が鳥取砂丘こどもの国へ移設されたよ！<br><br><a href='https://prtimes.jp/main/html/rd/p/000000179.000078201.html' target='_blank'>🔗 詳細を開く</a>",
        "category": "legacy",
        "isStore": false,
        "isKomyaku": false,
        "link": "https://prtimes.jp/main/html/rd/p/000000179.000078201.html",
        "image_url": "https://prcdn.freetls.fastly.net/release_image/78201/179/78201-179-e0221a7396d409a0b28f1e0c3a93eac7-3900x2600.jpg?format=jpeg&auto=webp&fit=bounds&width=2400&height=1260"
      },
      "geometry": {
        "type": "Point",
        "coordinates": [
          134.2244301,
          35.53390904
        ]
      }
    },
    {
      "type": "Feature",
      "properties": {
        "name": "英国パビリオンの赤い電話ボックスが関西国際空港に設置されました！",
        "popupContent": "<b style='color:#2e7d32;'>【公開中】</b><br><b>【英国パビリオンの赤い電話ボックスが関西国際空港に設置されました！】</b><br>📅 期間: 2026/03/27 ～ 常設<br>📝 「大阪・関西万博」英国パビリオンの赤い電話ボックスが関空に登場。旅の途中に立ち寄って見られます。<br><br><a href='https://prtimes.jp/main/html/rd/p/000000375.000045236.html' target='_blank'>🔗 詳細を開く</a>",
        "category": "legacy",
        "isStore": false,
        "isKomyaku": false,
        "link": "https://prtimes.jp/main/html/rd/p/000000375.000045236.html",
        "image_url": "https://prcdn.freetls.fastly.net/release_image/45236/375/45236-375-4a87bb0ef4e4121df0ab66490b645988-1149x765.jpg?format=jpeg&auto=webp&fit=bounds&width=2400&height=1260"
      },
      "geometry": {
        "type": "Point",
        "coordinates": [
          135.243537,
          34.43591476
        ]
      }
    },
    {
      "type": "Feature",
      "properties": {
        "name": "「ミライ人間洗濯機」エスコンフィールドHOKKAIDOホテル北広島駅前」サウナ施設に導入",
        "popupContent": "<b style='color:#2e7d32;'>【公開中】</b><br><b>【「ミライ人間洗濯機」エスコンフィールドHOKKAIDOホテル北広島駅前」サウナ施設に導入】</b><br>📅 期間: 2026/03/31 ～ 常設<br>📝 万博で話題のミライ人間洗濯機が、北広島駅前ホテルのサウナ施設に導入されているらしいよ！<br><br><a href='https://prtimes.jp/main/html/rd/p/000000057.000090191.html' target='_blank'>🔗 詳細を開く</a>",
        "category": "legacy",
        "isStore": false,
        "isKomyaku": false,
        "link": "https://prtimes.jp/main/html/rd/p/000000057.000090191.html",
        "image_url": "https://prcdn.freetls.fastly.net/release_image/90191/57/90191-57-208d32de923e94dff08d84654ed2d373-3068x2045.jpg?format=jpeg&auto=webp&fit=bounds&width=2400&height=1260"
      },
      "geometry": {
        "type": "Point",
        "coordinates": [
          141.5620308,
          42.97908633
        ]
      }
    },
    {
      "type": "Feature",
      "properties": {
        "name": "「おばけワンダーランドゾーン」「hu+g MUSEUM（ハグミュージア...",
        "popupContent": "<b style='color:#2e7d32;'>【公開中】</b><br><b>【「おばけワンダーランドゾーン」「hu+g MUSEUM（ハグミュージア...】</b><br>📅 期間: 2026/03/14 ～ 2027/03/31<br>📝 大阪・関西万博で大人気、ガスパビリオンおばけワンダーランドの世界観を追体験できる展示ゾーンが、hu+g MUSEUMで楽しめます。<br><br><a href='https://prtimes.jp/main/html/rd/p/000000212.000139670.html' target='_blank'>🔗 詳細を開く</a>",
        "category": "legacy",
        "isStore": false,
        "isKomyaku": false,
        "link": "https://prtimes.jp/main/html/rd/p/000000212.000139670.html",
        "image_url": "https://prcdn.freetls.fastly.net/release_image/139670/212/139670-212-d91cf16550fc3b359342f89d4f8e4493-2225x694.png?format=jpeg&auto=webp&fit=bounds&width=2400&height=1260"
      },
      "geometry": {
        "type": "Point",
        "coordinates": [
          135.478515,
          34.66921745
        ]
      }
    },
    {
      "type": "Feature",
      "properties": {
        "name": "（予定）トイレ5（2億円トイレ）",
        "popupContent": "<b style='color:#e67e22;'>【予定】</b><br><b>【トイレ5（2億円トイレ）】</b><br>📅 期間: 2026年12月予定 ～ 常設<br>📝 万博会場で使われたトイレ5を、花の文化園で移設活用する計画が進んでいるとのこと！<br><br><a href='https://hanabun-osaka.witc-pm.jp/news/2025banpakutoire/' target='_blank'>🔗 詳細を開く</a>",
        "category": "legacy",
        "isStore": false,
        "isKomyaku": false,
        "link": "https://hanabun-osaka.witc-pm.jp/news/2025banpakutoire/",
        "image_url": ""
      },
      "geometry": {
        "type": "Point",
        "coordinates": [
          135.5532584,
          34.43507024
        ]
      }
    },
    {
      "type": "Feature",
      "properties": {
        "name": "Magnus Rinn（アイルランド館）",
        "popupContent": "<b style='color:#2e7d32;'>【公開中】</b><br><b>【Magnus Rinn（アイルランド館）】</b><br>📅 期間: 2025/11/20 ～ 2026/09/30<br>📝 アイルランド館の彫刻「Magnus RINN」が、知恩院三門周辺で公開されています。<br><br><a href='https://www.chion-in.or.jp/news/6406/' target='_blank'>🔗 詳細を開く</a>",
        "category": "legacy",
        "isStore": false,
        "isKomyaku": false,
        "link": "https://www.chion-in.or.jp/news/6406/",
        "image_url": ""
      },
      "geometry": {
        "type": "Point",
        "coordinates": [
          135.7822638,
          35.00477287
        ]
      }
    },
    {
      "type": "Feature",
      "properties": {
        "name": "ヨルダン館の砂",
        "popupContent": "<b style='color:#2e7d32;'>【公開中】</b><br><b>【ヨルダン館の砂】</b><br>📅 期間: 2026/01/31 ～ 常設<br>📝 夢みなとタワーで、砂と記念展示を楽しめる「とっとりサンドパビリオン」を開催中です。<br><br><a href='https://www.yumeminatotower.gr.jp/floorguide/%E5%A4%A7%E9%98%AA%E3%83%BB%E9%96%A2%E8%A5%BF%E4%B8%87%E5%8D%9A%E8%A8%98%E5%BF%B5-%E3%81%A8%E3%81%A3%E3%81%A8%E3%82%8A%E3%82%B5%E3%83%B3%E3%83%89%E3%83%91%E3%83%93%E3%83%AA%E3%82%AA%E3%83%B3/' target='_blank'>🔗 詳細を開く</a>",
        "category": "legacy",
        "isStore": false,
        "isKomyaku": false,
        "link": "https://www.yumeminatotower.gr.jp/floorguide/%E5%A4%A7%E9%98%AA%E3%83%BB%E9%96%A2%E8%A5%BF%E4%B8%87%E5%8D%9A%E8%A8%98%E5%BF%B5-%E3%81%A8%E3%81%A3%E3%81%A8%E3%82%8A%E3%82%B5%E3%83%B3%E3%83%89%E3%83%91%E3%83%93%E3%83%AA%E3%82%AA%E3%83%B3/",
        "image_url": ""
      },
      "geometry": {
        "type": "Point",
        "coordinates": [
          133.259305,
          35.51991406
        ]
      }
    },
    {
      "type": "Feature",
      "properties": {
        "name": "「問いかけられるネギ」（よしもとwaraii myraii館）",
        "popupContent": "<b style='color:#2e7d32;'>【公開中】</b><br><b>【「問いかけられるネギ」（よしもとwaraii myraii館）】</b><br>📅 期間: 2025/11/14 ～ 常設<br>📝 万博で話題になったアート作品「問いかけられるネギ」を、下仁田町役場で展示しているらしいよ！<br><br><a href='https://www.town.shimonita.lg.jp/kikaku-zaisei/m05/m10/01.html' target='_blank'>🔗 詳細を開く</a>",
        "category": "legacy",
        "isStore": false,
        "isKomyaku": false,
        "link": "https://www.town.shimonita.lg.jp/kikaku-zaisei/m05/m10/01.html",
        "image_url": ""
      },
      "geometry": {
        "type": "Point",
        "coordinates": [
          138.7829435,
          36.2127341
        ]
      }
    },
    {
      "type": "Feature",
      "properties": {
        "name": "モリーゼ州の鐘（イタリア館）",
        "popupContent": "<b style='color:#2e7d32;'>【公開中】</b><br><b>【モリーゼ州の鐘（イタリア館）】</b><br>📅 期間: 2025/07/14 ～ 常設<br>📝 イタリア館ゆかりのモリーゼ州の鐘を、カトリック玉造教会で継承展示しています。<br><br><a href='https://tamatsukuri.ostk.catholic.jp/menu/expo2025' target='_blank'>🔗 詳細を開く</a>",
        "category": "legacy",
        "isStore": false,
        "isKomyaku": false,
        "link": "https://tamatsukuri.ostk.catholic.jp/menu/expo2025",
        "image_url": "https://static.wixstatic.com/media/d9eab7_d2bb1f7ce77c4145803a70aaee909a6e%7Emv2.png/v1/fit/w_2500,h_1330,al_c/d9eab7_d2bb1f7ce77c4145803a70aaee909a6e%7Emv2.png"
      },
      "geometry": {
        "type": "Point",
        "coordinates": [
          135.5270714,
          34.67844058
        ]
      }
    },
    {
      "type": "Feature",
      "properties": {
        "name": "（予定）「いのちの遊び場 クラゲ館」移築計画",
        "popupContent": "<b style='color:#e67e22;'>【予定】</b><br><b>【「いのちの遊び場 クラゲ館」移築計画】</b><br>📅 期間: 2029年予定 ～ 常設<br>📝 クラゲ館の大屋根を、福山の子ども未来館整備とあわせて移す計画があります<br><br><a href='https://www.city.fukuyama.hiroshima.jp/uploaded/attachment/327686.pdf' target='_blank'>🔗 詳細を開く</a>",
        "category": "legacy",
        "isStore": false,
        "isKomyaku": false,
        "link": "https://www.city.fukuyama.hiroshima.jp/uploaded/attachment/327686.pdf",
        "image_url": ""
      },
      "geometry": {
        "type": "Point",
        "coordinates": [
          133.3667709,
          34.46776496
        ]
      }
    },
    {
      "type": "Feature",
      "properties": {
        "name": "（予定）PASONA NATUREVERSE レガシー活用拠点",
        "popupContent": "<b style='color:#e67e22;'>【予定】</b><br><b>【PASONA NATUREVERSE レガシー活用拠点】</b><br>📅 期間: 2026年6月予定 ～ 常設<br>📝 万博パビリオンの技術や世界観を受け継ぐ、淡路島の滞在型リトリート施設です。<br><br><a href='https://www.pasonagroup.co.jp/news/tabid312.html?dispmid=821&itemid=5748' target='_blank'>🔗 詳細を開く</a>",
        "category": "legacy",
        "isStore": false,
        "isKomyaku": false,
        "link": "https://www.pasonagroup.co.jp/news/tabid312.html?dispmid=821&itemid=5748",
        "image_url": "http://www.pasonagroup.co.jp/Portals/0/Skins/PSN/images/ogp.png"
      },
      "geometry": {
        "type": "Point",
        "coordinates": [
          135.0245783,
          34.5799436
        ]
      }
    },
    {
      "type": "Feature",
      "properties": {
        "name": "「ノモの国」の館名サイン、Unlock体験エリア展示物（結晶、ノモの森ツリーオブジェ、ノモの森岩オブジェ）、「ノモの国」スタンプ",
        "popupContent": "<b style='color:#2e7d32;'>【公開中】</b><br><b>【「ノモの国」の館名サイン、Unlock体験エリア展示物（結晶、ノモの森ツリーオブジェ、ノモの森岩オブジェ）、「ノモの国」スタンプ】</b><br>📅 期間: 2025/12/01 ～ 常設<br>📝 野田阪神駅前通商店会に、館名サインや結晶展示、スタンプなどが移設されているよ！<br><br><a href='https://news.panasonic.com/jp/press/jn251222-4' target='_blank'>🔗 詳細を開く</a>",
        "category": "legacy",
        "isStore": false,
        "isKomyaku": false,
        "link": "https://news.panasonic.com/jp/press/jn251222-4",
        "image_url": "https://news.panasonic.com/uploads/tmg_block_page/ogp_image/18238/l-jn251222-4-1.jpg"
      },
      "geometry": {
        "type": "Point",
        "coordinates": [
          135.4746339,
          34.69394494
        ]
      }
    },
    {
      "type": "Feature",
      "properties": {
        "name": "Unlock体験エリア展示物（結晶、ノモの森ツリーオブジェ、ノモの森岩オブジェ、止まり木）、Novitek（ノビテク）培養展示、kinari（キナリ）ハン...",
        "popupContent": "<b style='color:#2e7d32;'>【公開中】</b><br><b>【Unlock体験エリア展示物（結晶、ノモの森ツリーオブジェ、ノモの森岩オブジェ、止まり木）、Novitek（ノビテク）培養展示、kinari（キナリ）ハン...】</b><br>📅 期間: 2025/12/01 ～ 常設<br>📝 大阪科学技術館で、体験展示やスタッフユニフォームなどをレガシー公開されているらしいよ！<br><br><a href='https://news.panasonic.com/jp/press/jn251222-4' target='_blank'>🔗 詳細を開く</a>",
        "category": "legacy",
        "isStore": false,
        "isKomyaku": false,
        "link": "https://news.panasonic.com/jp/press/jn251222-4",
        "image_url": "https://news.panasonic.com/uploads/tmg_block_page/ogp_image/18238/l-jn251222-4-1.jpg"
      },
      "geometry": {
        "type": "Point",
        "coordinates": [
          135.4964826,
          34.6865452
        ]
      }
    },
    {
      "type": "Feature",
      "properties": {
        "name": "ノモの森ツリーオブジェ",
        "popupContent": "<b style='color:#2e7d32;'>【公開中】</b><br><b>【ノモの森ツリーオブジェ】</b><br>📅 期間: 2025/12/01 ～ 常設<br>📝 ノモの森ツリーオブジェが、関空または伊丹空港へ移設される予定です。<br><br><a href='https://news.panasonic.com/jp/press/jn251222-4' target='_blank'>🔗 詳細を開く</a>",
        "category": "legacy",
        "isStore": false,
        "isKomyaku": false,
        "link": "https://news.panasonic.com/jp/press/jn251222-4",
        "image_url": "https://news.panasonic.com/uploads/tmg_block_page/ogp_image/18238/l-jn251222-4-1.jpg"
      },
      "geometry": {
        "type": "Point",
        "coordinates": [
          135.243537,
          34.43591476
        ]
      }
    },
    {
      "type": "Feature",
      "properties": {
        "name": "純水素型燃料電池",
        "popupContent": "<b style='color:#2e7d32;'>【公開中】</b><br><b>【純水素型燃料電池】</b><br>📅 期間: 2025/12/01 ～ 常設<br>📝 純水素型燃料電池が金沢工業大学へ寄贈され、教育研究の場で活用されます。<br><br><a href='https://news.panasonic.com/jp/press/jn251222-4' target='_blank'>🔗 詳細を開く</a>",
        "category": "legacy",
        "isStore": false,
        "isKomyaku": false,
        "link": "https://news.panasonic.com/jp/press/jn251222-4",
        "image_url": "https://news.panasonic.com/uploads/tmg_block_page/ogp_image/18238/l-jn251222-4-1.jpg"
      },
      "geometry": {
        "type": "Point",
        "coordinates": [
          136.6280278,
          36.5302859
        ]
      }
    },
    {
      "type": "Feature",
      "properties": {
        "name": "「ノモの国」ベンチ、ミスト、屋外照明器具パナソニック スタジアム 吹田",
        "popupContent": "<b style='color:#2e7d32;'>【公開中】</b><br><b>【「ノモの国」ベンチ、ミスト、屋外照明器具パナソニック スタジアム 吹田】</b><br>📅 期間: 2025/12/01 ～ 常設<br>📝 ノモの国のベンチやミスト、照明器具をパナソニック スタジアム 吹田で活用しているよ！<br><br><a href='https://news.panasonic.com/jp/press/jn251222-4' target='_blank'>🔗 詳細を開く</a>",
        "category": "legacy",
        "isStore": false,
        "isKomyaku": false,
        "link": "https://news.panasonic.com/jp/press/jn251222-4",
        "image_url": "https://news.panasonic.com/uploads/tmg_block_page/ogp_image/18238/l-jn251222-4-1.jpg"
      },
      "geometry": {
        "type": "Point",
        "coordinates": [
          135.5382141,
          34.80286187
        ]
      }
    },
    {
      "type": "Feature",
      "properties": {
        "name": "「いのち球モニュメント」",
        "popupContent": "<b style='color:#2e7d32;'>【公開中】</b><br><b>【「いのち球モニュメント」】</b><br>📅 期間: 2025/12/01 ～ 常設<br>📝 万博の記憶を未来へつなぐ「いのち球モニュメント」が、万博記念公園で見られます。<br><br><a href='https://www.expo70-park.jp/facility/watchlearn/inochidama/' target='_blank'>🔗 詳細を開く</a>",
        "category": "legacy",
        "isStore": false,
        "isKomyaku": false,
        "link": "https://www.expo70-park.jp/facility/watchlearn/inochidama/",
        "image_url": ""
      },
      "geometry": {
        "type": "Point",
        "coordinates": [
          135.531367,
          34.81183962
        ]
      }
    },
    {
      "type": "Feature",
      "properties": {
        "name": "カナダ国立公園庁の赤い椅子",
        "popupContent": "<b style='color:#2e7d32;'>【公開中】</b><br><b>【カナダ国立公園庁の赤い椅子】</b><br>📅 期間: 2025/11/12 ～ 常設<br>📝 関西国際空港に、カナダパビリオンにあったカナダ国立公園庁の赤い椅子が展示されています。<br><br><a href='https://assets.kansai-airports.co.jp/a9980481-j__251112_pressrelease_expo_legacy_project.pdf' target='_blank'>🔗 詳細を開く</a>",
        "category": "legacy",
        "isStore": false,
        "isKomyaku": false,
        "link": "https://assets.kansai-airports.co.jp/a9980481-j__251112_pressrelease_expo_legacy_project.pdf",
        "image_url": ""
      },
      "geometry": {
        "type": "Point",
        "coordinates": [
          135.243537,
          34.43591476
        ]
      }
    },
    {
      "type": "Feature",
      "properties": {
        "name": "竹簡をデザインした外壁パネル",
        "popupContent": "<b style='color:#2e7d32;'>【公開中】</b><br><b>【竹簡をデザインした外壁パネル】</b><br>📅 期間: 2025/11/12 ～ 常設<br>📝 関西国際空港に、中国パビリオンにあった外壁パネルが展示されています。<br><br><a href='https://assets.kansai-airports.co.jp/a9980481-j__251112_pressrelease_expo_legacy_project.pdf' target='_blank'>🔗 詳細を開く</a>",
        "category": "legacy",
        "isStore": false,
        "isKomyaku": false,
        "link": "https://assets.kansai-airports.co.jp/a9980481-j__251112_pressrelease_expo_legacy_project.pdf",
        "image_url": ""
      },
      "geometry": {
        "type": "Point",
        "coordinates": [
          135.243577,
          34.43591476
        ]
      }
    },
    {
      "type": "Feature",
      "properties": {
        "name": "群島をたどって、響く鼓動復興の島 - ノートルダム大聖堂と首里城",
        "popupContent": "<b style='color:#2e7d32;'>【公開中】</b><br><b>【群島をたどって、響く鼓動復興の島 - ノートルダム大聖堂と首里城】</b><br>📅 期間: 2025/11/12 ～ 常設<br>📝 関西国際空港に、フランスパビリオンにあった作品が展示されています。<br><br><a href='https://assets.kansai-airports.co.jp/a9980481-j__251112_pressrelease_expo_legacy_project.pdf' target='_blank'>🔗 詳細を開く</a>",
        "category": "legacy",
        "isStore": false,
        "isKomyaku": false,
        "link": "https://assets.kansai-airports.co.jp/a9980481-j__251112_pressrelease_expo_legacy_project.pdf",
        "image_url": ""
      },
      "geometry": {
        "type": "Point",
        "coordinates": [
          135.243607,
          34.43591476
        ]
      }
    },
    {
      "type": "Feature",
      "properties": {
        "name": "群島をたどって、響く鼓動息づく島 - モン・サン＝ミッシェルの修道院と厳島神社の大鳥居",
        "popupContent": "<b style='color:#2e7d32;'>【公開中】</b><br><b>【群島をたどって、響く鼓動息づく島 - モン・サン＝ミッシェルの修道院と厳島神社の大鳥居】</b><br>📅 期間: 2025/11/12 ～ 常設<br>📝 関西国際空港に、フランスパビリオンにあった作品が展示されています。<br><br><a href='https://assets.kansai-airports.co.jp/a9980481-j__251112_pressrelease_expo_legacy_project.pdf' target='_blank'>🔗 詳細を開く</a>",
        "category": "legacy",
        "isStore": false,
        "isKomyaku": false,
        "link": "https://assets.kansai-airports.co.jp/a9980481-j__251112_pressrelease_expo_legacy_project.pdf",
        "image_url": ""
      },
      "geometry": {
        "type": "Point",
        "coordinates": [
          135.243667,
          34.43591476
        ]
      }
    },
    {
      "type": "Feature",
      "properties": {
        "name": "大阪国際空港のExpo Legacy Project",
        "popupContent": "<b style='color:#2e7d32;'>【公開中】</b><br><b>【大阪国際空港のExpo Legacy Project】</b><br>📅 期間: 2025/11/12 ～ 常設<br>📝 大阪国際空港にも、万博レガシー展示が順次登場。空港で出会える企画です。<br><br><a href='https://assets.kansai-airports.co.jp/a9980481-j__251112_pressrelease_expo_legacy_project.pdf' target='_blank'>🔗 詳細を開く</a>",
        "category": "legacy",
        "isStore": false,
        "isKomyaku": false,
        "link": "https://assets.kansai-airports.co.jp/a9980481-j__251112_pressrelease_expo_legacy_project.pdf",
        "image_url": ""
      },
      "geometry": {
        "type": "Point",
        "coordinates": [
          135.4420089,
          34.79140907
        ]
      }
    },
    {
      "type": "Feature",
      "properties": {
        "name": "「いのちの遊び場 クラゲ館」等のレガシー展示スペース",
        "popupContent": "<b style='color:#2e7d32;'>【公開中】</b><br><b>【「いのちの遊び場 クラゲ館」等のレガシー展示スペース】</b><br>📅 期間: 2026/04/21 ～ 常設<br>📝 立命館大OICに、クラゲ館などの展示品を生かしたレガシー展示空間が開設されます。<br><br><a href='https://www.ritsumei.ac.jp/news/detail/?id=4449' target='_blank'>🔗 詳細を開く</a>",
        "category": "legacy",
        "isStore": false,
        "isKomyaku": false,
        "link": "https://www.ritsumei.ac.jp/news/detail/?id=4449",
        "image_url": "https://www.ritsumei.ac.jp/image.jsp?id=691608"
      },
      "geometry": {
        "type": "Point",
        "coordinates": [
          135.5623396,
          34.81022334
        ]
      }
    },
    {
      "type": "Feature",
      "properties": {
        "name": "万博レガシー関連展示 / ミャクミャクモニュメント移設先",
        "popupContent": "<b style='color:#2e7d32;'>【公開中】</b><br><b>【万博レガシー関連展示 / ミャクミャクモニュメント移設先】</b><br>📅 期間: 2025/12/18 ～ 常設<br>📝 ATCでミャクミャクモニュメントの移設展示や、万博レガシー関連展示を楽しめます。<br><br><a href='https://www.city.osaka.lg.jp/hodoshiryo/keizaisenryaku/0000666107.html' target='_blank'>🔗 詳細を開く</a>",
        "category": "legacy",
        "isStore": false,
        "isKomyaku": false,
        "link": "https://www.city.osaka.lg.jp/hodoshiryo/keizaisenryaku/0000666107.html",
        "image_url": "https://www.city.osaka.lg.jp/main/css/img/ogp_image.png"
      },
      "geometry": {
        "type": "Point",
        "coordinates": [
          135.411211,
          34.6384478
        ]
      }
    },
    {
      "type": "Feature",
      "properties": {
        "name": "大阪ヘルスケアパビリオン「iPS細胞」関連展示",
        "popupContent": "<b style='color:#2e7d32;'>【公開中】</b><br><b>【大阪ヘルスケアパビリオン「iPS細胞」関連展示】</b><br>📅 期間: 2025/12/12 ～ 常設<br>📝 心筋シート映像や生きる心臓モデルなど、iPS関連展示を中之島クロスで見られるんだって！<br><br><a href='https://www.pref.osaka.lg.jp/o110040/2025miraiiryo_tennzi.html' target='_blank'>🔗 詳細を開く</a>",
        "category": "legacy",
        "isStore": false,
        "isKomyaku": false,
        "link": "https://www.pref.osaka.lg.jp/o110040/2025miraiiryo_tennzi.html",
        "image_url": "https://www.pref.osaka.lg.jp/shared/images/sns/logo.jpg"
      },
      "geometry": {
        "type": "Point",
        "coordinates": [
          135.490456,
          34.69240105
        ]
      }
    },
    {
      "type": "Feature",
      "properties": {
        "name": "ミライ人間洗濯機",
        "popupContent": "<b style='color:#2e7d32;'>【公開中】</b><br><b>【ミライ人間洗濯機】</b><br>📅 期間: 2025/12/10 ～ 常設<br>📝 話題のミライ人間洗濯機を体験できる客室が、道頓堀クリスタルホテルⅢにあるらしいよ！<br><br><a href='https://resortlife.co.jp/lp/human-washing-machine/' target='_blank'>🔗 詳細を開く</a>",
        "category": "legacy",
        "isStore": false,
        "isKomyaku": false,
        "link": "https://resortlife.co.jp/lp/human-washing-machine/",
        "image_url": ""
      },
      "geometry": {
        "type": "Point",
        "coordinates": [
          135.5097145,
          34.67116762
        ]
      }
    },
    {
      "type": "Feature",
      "properties": {
        "name": "ヨルダンパビリオン「ワディ・ラム砂漠の砂」",
        "popupContent": "<b style='color:#2e7d32;'>【公開中】</b><br><b>【ヨルダンパビリオン「ワディ・ラム砂漠の砂」】</b><br>📅 期間: 2026/04/01 ～ 常設<br>📝 百舌鳥古墳群ビジターセンターで、ヨルダン館の砂を受け継ぐ展示を行っています。<br><br><a href='https://www.city.sakai.lg.jp/kanko/rekishi/sei/kohun_otozureru/mozukofungun_visitorcenter.html' target='_blank'>🔗 詳細を開く</a>",
        "category": "legacy",
        "isStore": false,
        "isKomyaku": false,
        "link": "https://www.city.sakai.lg.jp/kanko/rekishi/sei/kohun_otozureru/mozukofungun_visitorcenter.html",
        "image_url": "https://www.city.sakai.lg.jp/images/sakai_ogp_image.jpg"
      },
      "geometry": {
        "type": "Point",
        "coordinates": [
          135.4862625,
          34.56016854
        ]
      }
    },
    {
      "type": "Feature",
      "properties": {
        "name": "【完全予約制】EXPO2025 OFFICIAL CAFE らぽっぽリンクス梅田店（4/27より）",
        "popupContent": "<b style='color:#2e7d32;'>【公開中】</b><br><b>【【完全予約制】EXPO2025 OFFICIAL CAFE らぽっぽリンクス梅田店（4/27より）】</b><br>📅 期間: 2026/04/27 ～ 2026/10/31<br>📝 リンクス梅田に登場した「EXPO2025 OFFICIAL CAFE らぽっぽリンクス梅田店」は、万博で話題になった「ミャクミャク焼き」をはじめ、ミャクミャクの世界観を五感で楽しめる公式カフェです。店内は思わず写真を撮りたくなる没入感ある空間で、ここだけの限定メニューも用意。見る・味わう・感じるを通して、万博の記憶をもう一度楽しめる特別なスポットです！\n<br><br><a href='https://lapoppo.com/expo2025-oc/' target='_blank'>🔗 詳細を開く</a>",
        "category": "legacy",
        "isStore": false,
        "isKomyaku": false,
        "link": "https://lapoppo.com/expo2025-oc/",
        "image_url": ""
      },
      "geometry": {
        "type": "Point",
        "coordinates": [
          135.4961995,
          34.704692
        ]
      }
    },
    {
      "type": "Feature",
      "properties": {
        "name": "大阪府立上方演芸資料館（ワッハ上方）",
        "popupContent": "<b style='color:#2e7d32;'>【公開中】</b><br><b>【大阪府立上方演芸資料館（ワッハ上方）】</b><br>📅 期間: 2026/04/25 ～ 常設<br>📝 ワッハ上方ではSNSフォローキャンペーンを開催中！\r\n館内観覧後にSNSのフォロー画面を提示すると、缶バッジをプレゼント。\r\n展示を楽しんだ記念に、ぜひ持ち帰ってみてください！<br><br><a href='https://x.com/wkamigata/status/2047612623978643853?s=43&t=Spz9-6o9mDMe00Tl3EPxfg' target='_blank'>🔗 詳細を開く</a>",
        "category": "legacy",
        "isStore": false,
        "isKomyaku": false,
        "link": "https://x.com/wkamigata/status/2047612623978643853?s=43&t=Spz9-6o9mDMe00Tl3EPxfg",
        "image_url": "https://pbs.twimg.com/media/HGqU1B8bUAAHxJu.jpg:large"
      },
      "geometry": {
        "type": "Point",
        "coordinates": [
          135.5032485,
          34.66472733
        ]
      }
    },
    {
      "type": "Feature",
      "properties": {
        "name": "インドネシア館にあったラタンのランプシェード群",
        "popupContent": "<b style='color:#2e7d32;'>【公開中】</b><br><b>【インドネシア館にあったラタンのランプシェード群】</b><br>📅 期間: 2026/04/25 ～ 常設<br>📝 奈良・TEN.TEN.CAFE東大寺店は、ランチやスイーツを楽しめる人気カフェですが、今注目したいのは、大阪・関西万博インドネシア館にあったラタンのランプシェード群が受け継がれていることです。店内には、万博で来場者の目を引いた温かみのある編み込み照明が並び、奈良にいながら異国情緒あふれる空間を味わえます。東大寺や奈良公園の散策途中に立ち寄りやすく、キッズスペースやテラス席も備えているため、子ども連れやわんちゃん連れでも利用しやすいのが魅力。記念スタンプもあり、万博レガシーを感じられる特別なカフェスポットとして楽しめます。<br><br><a href='\r\nhttps://www.instagram.com/p/DV27S5tgCCL/' target='_blank'>🔗 詳細を開く</a>",
        "category": "legacy",
        "isStore": false,
        "isKomyaku": false,
        "link": "\r\nhttps://www.instagram.com/p/DV27S5tgCCL/",
        "image_url": ""
      },
      "geometry": {
        "type": "Point",
        "coordinates": [
          135.8392724,
          34.68442449
        ]
      }
    },
    {
      "type": "Feature",
      "properties": {
        "name": "ルクセンブルクパビリオンのボウリング遊具",
        "popupContent": "<b style='color:#2e7d32;'>【公開中】</b><br><b>【ルクセンブルクパビリオンのボウリング遊具】</b><br>📅 期間: 2026/04/25 ～ 常設<br>📝 大阪・関西万博ルクセンブルク館で使われたボウリング遊具が、三重県立鈴鹿青少年センター「スズカト」に移設・設置されました。<br><br><a href='https://suzukato.jp/' target='_blank'>🔗 詳細を開く</a>",
        "category": "legacy",
        "isStore": false,
        "isKomyaku": false,
        "link": "https://suzukato.jp/",
        "image_url": ""
      },
      "geometry": {
        "type": "Point",
        "coordinates": [
          136.5382296,
          34.85636787
        ]
      }
    },
    {
      "type": "Feature",
      "properties": {
        "name": "タイ館のゾウのモニュメントの複製",
        "popupContent": "<b style='color:#2e7d32;'>【公開中】</b><br><b>【タイ館のゾウのモニュメントの複製】</b><br>📅 期間: 2026/03/01 ～ 常設<br>📝 大阪・関西万博のタイパビリオンで来場者を迎えた、親子のゾウのモニュメントの複製。池田病院の関連施設「総合健康づくりセンターＨｏｌｌｙ　ＥＩＷＡ」に展示されています。タイパビリオンの「大きな幸福のため、命に力を与える」という理念に心を動かされた東大阪市の池田病院がタイの制作会社に依頼して複製を自費で制作を依頼した作品。<br><br><a href='https://www.holly-eiwa.co.jp/' target='_blank'>🔗 詳細を開く</a>",
        "category": "legacy",
        "isStore": false,
        "isKomyaku": false,
        "link": "https://www.holly-eiwa.co.jp/",
        "image_url": ""
      },
      "geometry": {
        "type": "Point",
        "coordinates": [
          135.5742292,
          34.66349193
        ]
      }
    },
    {
      "type": "Feature",
      "properties": {
        "name": "PANAF' African Restaurant & Club\r",
        "popupContent": "<b style='color:#2e7d32;'>【公開中】</b><br><b>【PANAF' African Restaurant & Club\r】</b><br>📅 期間: 常設 / 時期----<br>📝 大阪・関西万博で大行列となったアフリカ料理店が、待望の常設店としてオープン。アフリカの伝統と他国文化が融合した本格的な料理や、現地の食材を使ったクラフトビールが楽しめます。金・土曜の夜はクラブイベントも開催。新しい味覚と音楽をぜひご体験ください。<br><br><a href='https://panaf.jp/' target='_blank'>🔗 詳細を開く</a>",
        "category": "legacy",
        "isStore": false,
        "isKomyaku": false,
        "link": "https://panaf.jp/",
        "image_url": ""
      },
      "geometry": {
        "type": "Point",
        "coordinates": [
          135.4987747,
          34.67247272
        ]
      }
    },
    {
      "type": "Feature",
      "properties": {
        "name": "住友館資料受託記念「大阪・関西万博　#住友館のレガシー」\r",
        "popupContent": "<b style='color:#2e7d32;'>【公開中】</b><br><b>【住友館資料受託記念「大阪・関西万博　#住友館のレガシー」\r】</b><br>📅 期間: 2026/04/21 ～ 2026/07/31<br>📝 大阪・関西万博「住友館」で展示された資料の一部が、泉屋博古館にて特別公開されています。「人と自然の共生」というテーマを継承する取り組みです。1970年万博のレガシーでもある同館で、二つの万博の歴史を同時に体感できます。<br><br><a href='https://sen-oku.or.jp/news_20260414/' target='_blank'>🔗 詳細を開く</a>",
        "category": "legacy",
        "isStore": false,
        "isKomyaku": false,
        "link": "https://sen-oku.or.jp/news_20260414/",
        "image_url": ""
      },
      "geometry": {
        "type": "Point",
        "coordinates": [
          135.7930986,
          35.01753911
        ]
      }
    },
    {
      "type": "Feature",
      "properties": {
        "name": "大阪・関西万博 迎賓館を彩ったタペストリー特別展示\r",
        "popupContent": "<b style='color:#2e7d32;'>【公開中】</b><br><b>【大阪・関西万博 迎賓館を彩ったタペストリー特別展示\r】</b><br>📅 期間: 時期---- ～ 2026/06/30<br>📝 万博会期中は一般非公開だった「迎賓館」の特製タペストリーが、好評につき東京ショールームで期間延長展示されています。国内外の賓客を迎えた、現代美術作家・川人綾氏デザインの美しい作品を間近で鑑賞できる貴重な機会です。<br><br><a href='https://www.kawashimaselkon.co.jp/info/news/20260421-01/' target='_blank'>🔗 詳細を開く</a>",
        "category": "legacy",
        "isStore": false,
        "isKomyaku": false,
        "link": "https://www.kawashimaselkon.co.jp/info/news/20260421-01/",
        "image_url": "https://www.kawashimaselkon.co.jp/contents/files/sites/2/2025/12/20251218-01-s.jpg"
      },
      "geometry": {
        "type": "Point",
        "coordinates": [
          139.7976933,
          35.65067133
        ]
      }
    },
    {
      "type": "Feature",
      "properties": {
        "name": "大阪・関西万博の『スマートポール』移設",
        "popupContent": "<b style='color:#2e7d32;'>【公開中】</b><br><b>【大阪・関西万博の『スマートポール』移設】</b><br>📅 期間: 2026/05/01 ～ 常設<br>📝 大阪・関西万博の「未来の都市」パビリオン前に設置されていた多機能ポール『スマートポール』が、神戸のウォーターフロントエリアへ移設されました。5月1日の夕方から点灯が開始され、神戸の海辺の景色を新たに彩ります。<br><br><a href='https://kobe-journal.com/archives/7547745875.html' target='_blank'>🔗 詳細を開く</a>",
        "category": "legacy",
        "isStore": false,
        "isKomyaku": false,
        "link": "https://kobe-journal.com/archives/7547745875.html",
        "image_url": ""
      },
      "geometry": {
        "type": "Point",
        "coordinates": [
          135.1962346,
          34.68451181
        ]
      }
    },
    {
      "type": "Feature",
      "properties": {
        "name": "オオカミベンチ（Colorful Flowers in Blue）※ピン位置は市民の森入口",
        "popupContent": "<b style='color:#2e7d32;'>【公開中】</b><br><b>【オオカミベンチ（Colorful Flowers in Blue）※ピン位置は市民の森入口】</b><br>📅 期間: 時期---- ～ 2027/03/31<br>📝 大阪・関西万博のパビリオンから全国へ旅立った10体の「オオカミベンチ」。そのうちの1体が大阪城公園に設置されています。作者・鴻池朋子氏の「見て楽しむだけでなく、手で触れて作品に入り込めるものを」という思いが込められており、人が座ることで初めて完成する実践的なアート作品です。<br><br><a href='https://medicineinfra.com/site/expo2025/' target='_blank'>🔗 詳細を開く</a>",
        "category": "legacy",
        "isStore": false,
        "isKomyaku": false,
        "link": "https://medicineinfra.com/site/expo2025/",
        "image_url": ""
      },
      "geometry": {
        "type": "Point",
        "coordinates": [
          135.5331982,
          34.68189163
        ]
      }
    },
    {
      "type": "Feature",
      "properties": {
        "name": "オオカミベンチ（Wolf Bench / Spring Flowers & Snakes）",
        "popupContent": "<b style='color:#2e7d32;'>【公開中】</b><br><b>【オオカミベンチ（Wolf Bench / Spring Flowers & Snakes）】</b><br>📅 期間: 常設 / 時期----<br>📝 大阪・関西万博のパビリオンから全国へ旅立った10体の「オオカミベンチ」。そのうちの1体がグラングリーン北館ピロティに設置されています。作者・鴻池朋子氏の「見て楽しむだけでなく、手で触れて作品に入り込めるものを」という思いが込められており、人が座ることで初めて完成する実践的なアート作品です。<br><br><a href='https://medicineinfra.com/site/expo2025/' target='_blank'>🔗 詳細を開く</a>",
        "category": "legacy",
        "isStore": false,
        "isKomyaku": false,
        "link": "https://medicineinfra.com/site/expo2025/",
        "image_url": ""
      },
      "geometry": {
        "type": "Point",
        "coordinates": [
          135.492942,
          34.706274
        ]
      }
    },
    {
      "type": "Feature",
      "properties": {
        "name": "ポーランドパビリオンの「もみじの木」",
        "popupContent": "<b style='color:#2e7d32;'>【公開中】</b><br><b>【ポーランドパビリオンの「もみじの木」】</b><br>📅 期間: 2026/01/29 ～ 常設<br>📝 打上川治水緑地に大阪・関西万博ポーランドパビリオンの「もみじの木」が移植されました。<br><br><a href='https://www.city.neyagawa.osaka.jp/material/files/group/20/2603fot.pdf' target='_blank'>🔗 詳細を開く</a>",
        "category": "legacy",
        "isStore": false,
        "isKomyaku": false,
        "link": "https://www.city.neyagawa.osaka.jp/material/files/group/20/2603fot.pdf",
        "image_url": ""
      },
      "geometry": {
        "type": "Point",
        "coordinates": [
          135.6364883,
          34.76585773
        ]
      }
    },
    {
      "type": "Feature",
      "properties": {
        "name": "EXPO2025 オフィシャルストア 阪神梅田本店",
        "popupContent": "<b style='color:#2e7d32;'>【公開中】</b><br><b>【EXPO2025 オフィシャルストア 阪神梅田本店】</b><br>📅 期間: 2026/04/22 ～ 常設<br>📝 大阪・関西万博の公式ライセンスグッズを取り扱う「EXPO2025 オフィシャルストア」が、阪神梅田本店2階にオープンしました。大盛況のうちに幕を閉じた万博の熱気をそのままに、公式キャラクター「ミャクミャク」のグッズなどを豊富にラインナップ！<br><br><a href='https://www.hanshin-dept.jp/hshonten/shopnews/detail/12696160_3429.html' target='_blank'>🔗 詳細を開く</a>",
        "category": "legacy",
        "isStore": true,
        "isKomyaku": false,
        "link": "https://www.hanshin-dept.jp/hshonten/shopnews/detail/12696160_3429.html",
        "image_url": "https://www.hanshin-dept.jp/hshonten/shopnews/detail/__icsFiles/afieldfile/2026/04/21/myakusamune.jpg"
      },
      "geometry": {
        "type": "Point",
        "coordinates": [
          135.4983666,
          34.70131207
        ]
      }
    },
    {
      "type": "Feature",
      "properties": {
        "name": "EXPO2025オフィシャルストア タオル美術館店",
        "popupContent": "<b style='color:#2e7d32;'>【公開中】</b><br><b>【EXPO2025オフィシャルストア タオル美術館店】</b><br>📅 期間: 2026/04/12 ～ 常設<br>📝 大阪・関西万博の公式ライセンスグッズを取り扱う「EXPO2025 オフィシャルストア」大盛況のうちに幕を閉じた万博の熱気をそのままに、公式キャラクター「ミャクミャク」のグッズなどを豊富にラインナップ！<br><br><a href='https://towelmuseum-shop.jp/collections/japanexpo2025?srsltid=AfmBOopjy5AJcfi9ulWDIEC6pLhMCKL8MdyuN_qnxKGkVriK57fLV7Qf' target='_blank'>🔗 詳細を開く</a>",
        "category": "legacy",
        "isStore": true,
        "isKomyaku": false,
        "link": "https://towelmuseum-shop.jp/collections/japanexpo2025?srsltid=AfmBOopjy5AJcfi9ulWDIEC6pLhMCKL8MdyuN_qnxKGkVriK57fLV7Qf",
        "image_url": "https://cdn.shopify.com/s/files/1/0487/6795/9189/collections/osakaexpo.png?v=1702447653"
      },
      "geometry": {
        "type": "Point",
        "coordinates": [
          133.0331556,
          33.96937541
        ]
      }
    },
    {
      "type": "Feature",
      "properties": {
        "name": "2025大阪・関西万博 オフィシャルストア 丸善名古屋店",
        "popupContent": "<b style='color:#2e7d32;'>【公開中】</b><br><b>【2025大阪・関西万博 オフィシャルストア 丸善名古屋店】</b><br>📅 期間: 2024/09/09 ～ 常設<br>📝 大阪・関西万博の公式ライセンスグッズを取り扱う「EXPO2025 オフィシャルストア」大盛況のうちに幕を閉じた万博の熱気をそのままに、公式キャラクター「ミャクミャク」のグッズなどを豊富にラインナップ！<br><br><a href='https://corp.maruzenjunkudo.co.jp/info/20240909-01/' target='_blank'>🔗 詳細を開く</a>",
        "category": "legacy",
        "isStore": true,
        "isKomyaku": false,
        "link": "https://corp.maruzenjunkudo.co.jp/info/20240909-01/",
        "image_url": ""
      },
      "geometry": {
        "type": "Point",
        "coordinates": [
          136.9058286,
          35.16738835
        ]
      }
    },
    {
      "type": "Feature",
      "properties": {
        "name": "2025大阪・関西万博 オフィシャルストア ジュンク堂書店三宮店",
        "popupContent": "<b style='color:#2e7d32;'>【公開中】</b><br><b>【2025大阪・関西万博 オフィシャルストア ジュンク堂書店三宮店】</b><br>📅 期間: 2026/01/30 ～ 常設<br>📝 大阪・関西万博の公式ライセンスグッズを取り扱う「EXPO2025 オフィシャルストア」大盛況のうちに幕を閉じた万博の熱気をそのままに、公式キャラクター「ミャクミャク」のグッズなどを豊富にラインナップ！<br><br><a href='https://corp.maruzenjunkudo.co.jp/info/20260127-01/' target='_blank'>🔗 詳細を開く</a>",
        "category": "legacy",
        "isStore": true,
        "isKomyaku": false,
        "link": "https://corp.maruzenjunkudo.co.jp/info/20260127-01/",
        "image_url": ""
      },
      "geometry": {
        "type": "Point",
        "coordinates": [
          135.1922845,
          34.69149443
        ]
      }
    },
    {
      "type": "Feature",
      "properties": {
        "name": "2025大阪・関西万博 オフィシャルストア ジュンク堂書店三宮駅前店",
        "popupContent": "<b style='color:#2e7d32;'>【公開中】</b><br><b>【2025大阪・関西万博 オフィシャルストア ジュンク堂書店三宮駅前店】</b><br>📅 期間: 2024/07/27 ～ 常設<br>📝 大阪・関西万博の公式ライセンスグッズを取り扱う「EXPO2025 オフィシャルストア」大盛況のうちに幕を閉じた万博の熱気をそのままに、公式キャラクター「ミャクミャク」のグッズなどを豊富にラインナップ！<br><br><a href='https://www.expo2025.or.jp/news/news-20240705-04/' target='_blank'>🔗 詳細を開く</a>",
        "category": "legacy",
        "isStore": true,
        "isKomyaku": false,
        "link": "https://www.expo2025.or.jp/news/news-20240705-04/",
        "image_url": "https://www.expo2025.or.jp/wp/wp-content/uploads/official-shop.jpg"
      },
      "geometry": {
        "type": "Point",
        "coordinates": [
          135.1964536,
          34.69530722
        ]
      }
    },
    {
      "type": "Feature",
      "properties": {
        "name": "2025大阪・関西万博 オフィシャルストア 大丸梅田店",
        "popupContent": "<b style='color:#2e7d32;'>【公開中】</b><br><b>【2025大阪・関西万博 オフィシャルストア 大丸梅田店】</b><br>📅 期間: 常設 / 時期----<br>📝 大阪・関西万博の公式ライセンスグッズを取り扱う「EXPO2025 オフィシャルストア」大盛況のうちに幕を閉じた万博の熱気をそのままに、公式キャラクター「ミャクミャク」のグッズなどを豊富にラインナップ！<br><br><a href='https://www.daimaru.co.jp/umedamise/topics/230919expo_officialTRUE.html' target='_blank'>🔗 詳細を開く</a>",
        "category": "legacy",
        "isStore": true,
        "isKomyaku": false,
        "link": "https://www.daimaru.co.jp/umedamise/topics/230919expo_officialTRUE.html",
        "image_url": ""
      },
      "geometry": {
        "type": "Point",
        "coordinates": [
          135.4967587,
          34.70215946
        ]
      }
    },
    {
      "type": "Feature",
      "properties": {
        "name": "2025 大阪・関西万博オフィシャルストア ジュンク堂書店堂島アバンザ店",
        "popupContent": "<b style='color:#2e7d32;'>【公開中】</b><br><b>【2025 大阪・関西万博オフィシャルストア ジュンク堂書店堂島アバンザ店】</b><br>📅 期間: 2026/01/31 ～ 常設<br>📝 大阪・関西万博の公式ライセンスグッズを取り扱う「EXPO2025 オフィシャルストア」大盛況のうちに幕を閉じた万博の熱気をそのままに、公式キャラクター「ミャクミャク」のグッズなどを豊富にラインナップ！<br><br><a href='https://corp.maruzenjunkudo.co.jp/info/20260126-01/' target='_blank'>🔗 詳細を開く</a>",
        "category": "legacy",
        "isStore": true,
        "isKomyaku": false,
        "link": "https://corp.maruzenjunkudo.co.jp/info/20260126-01/",
        "image_url": ""
      },
      "geometry": {
        "type": "Point",
        "coordinates": [
          135.4964219,
          34.69709224
        ]
      }
    },
    {
      "type": "Feature",
      "properties": {
        "name": "2025 大阪・関西万博オフィシャルストア ジュンク堂書店難波店",
        "popupContent": "<b style='color:#2e7d32;'>【公開中】</b><br><b>【2025 大阪・関西万博オフィシャルストア ジュンク堂書店難波店】</b><br>📅 期間: 2024/06/24 ～ 常設<br>📝 大阪・関西万博の公式ライセンスグッズを取り扱う「EXPO2025 オフィシャルストア」大盛況のうちに幕を閉じた万博の熱気をそのままに、公式キャラクター「ミャクミャク」のグッズなどを豊富にラインナップ！<br><br><a href='https://expo2025mlo.jp/news/507' target='_blank'>🔗 詳細を開く</a>",
        "category": "legacy",
        "isStore": true,
        "isKomyaku": false,
        "link": "https://expo2025mlo.jp/news/507",
        "image_url": "https://expo2025mlo.jp/wp-content/themes/expo-2025/assets/img/ogp.png"
      },
      "geometry": {
        "type": "Point",
        "coordinates": [
          135.4966318,
          34.66696258
        ]
      }
    },
    {
      "type": "Feature",
      "properties": {
        "name": "2025 大阪・関西万博オフィシャルストア MARUZEN&ジュンク堂書店 梅田店",
        "popupContent": "<b style='color:#2e7d32;'>【公開中】</b><br><b>【2025 大阪・関西万博オフィシャルストア MARUZEN&ジュンク堂書店 梅田店】</b><br>📅 期間: 常設 / 時期----<br>📝 大阪・関西万博の公式ライセンスグッズを取り扱う「EXPO2025 オフィシャルストア」大盛況のうちに幕を閉じた万博の熱気をそのままに、公式キャラクター「ミャクミャク」のグッズなどを豊富にラインナップ！<br><br><a href='https://corp.maruzenjunkudo.co.jp/info/20240220-01/' target='_blank'>🔗 詳細を開く</a>",
        "category": "legacy",
        "isStore": true,
        "isKomyaku": false,
        "link": "https://corp.maruzenjunkudo.co.jp/info/20240220-01/",
        "image_url": ""
      },
      "geometry": {
        "type": "Point",
        "coordinates": [
          135.5002583,
          34.70778903
        ]
      }
    },
    {
      "type": "Feature",
      "properties": {
        "name": "2025 大阪・関西万博オフィシャルストア JR新大阪駅 エキマルシェ店",
        "popupContent": "<b style='color:#2e7d32;'>【公開中】</b><br><b>【2025 大阪・関西万博オフィシャルストア JR新大阪駅 エキマルシェ店】</b><br>📅 期間: 常設 / 時期----<br>📝 大阪・関西万博の公式ライセンスグッズを取り扱う「EXPO2025 オフィシャルストア」大盛況のうちに幕を閉じた万博の熱気をそのままに、公式キャラクター「ミャクミャク」のグッズなどを豊富にラインナップ！<br><br><a href='https://shinosaka.ekimaru.com/shopguide/detail/54' target='_blank'>🔗 詳細を開く</a>",
        "category": "legacy",
        "isStore": true,
        "isKomyaku": false,
        "link": "https://shinosaka.ekimaru.com/shopguide/detail/54",
        "image_url": "https://shinosaka.ekimaru.com/storage/images/d25481a75c23abfdd181204566eec4d2.jpg"
      },
      "geometry": {
        "type": "Point",
        "coordinates": [
          135.5017451,
          34.73473788
        ]
      }
    },
    {
      "type": "Feature",
      "properties": {
        "name": "2025 大阪・関西万博オフィシャルストア あべのハルカス店",
        "popupContent": "<b style='color:#2e7d32;'>【公開中】</b><br><b>【2025 大阪・関西万博オフィシャルストア あべのハルカス店】</b><br>📅 期間: 常設 / 時期----<br>📝 大阪・関西万博の公式ライセンスグッズを取り扱う「EXPO2025 オフィシャルストア」大盛況のうちに幕を閉じた万博の熱気をそのままに、公式キャラクター「ミャクミャク」のグッズなどを豊富にラインナップ！<br><br><a href='https://abenoharukas.d-kintetsu.co.jp/pages/expo2025_official_TRUE/index.html' target='_blank'>🔗 詳細を開く</a>",
        "category": "legacy",
        "isStore": true,
        "isKomyaku": false,
        "link": "https://abenoharukas.d-kintetsu.co.jp/pages/expo2025_official_TRUE/index.html",
        "image_url": ""
      },
      "geometry": {
        "type": "Point",
        "coordinates": [
          135.5134848,
          34.64630203
        ]
      }
    },
    {
      "type": "Feature",
      "properties": {
        "name": "コミャクモニュメント「時空の広場」",
        "popupContent": "<b style='color:#2e7d32;'>【公開中】</b><br><b>【コミャクモニュメント「時空の広場」】</b><br>📅 期間: 常設 / 時期----<br>📝 大阪・関西万博のデザインシステムで「いのち」を象徴するエレメント「こみゃく」が万博のソフトレガシーとして、大阪駅のステーションシティ「時空の広場」にて「EXPO OSAKA STATION」のモニュメントとして展示中。<br><br><a href='' target='_blank'>🔗 詳細を開く</a>",
        "category": "legacy",
        "isStore": false,
        "isKomyaku": true,
        "link": "",
        "image_url": ""
      },
      "geometry": {
        "type": "Point",
        "coordinates": [
          135.4959639,
          34.70236443
        ]
      }
    },
    {
      "type": "Feature",
      "properties": {
        "name": "2025年大阪・関西万博ロゴシンボルモニュメント",
        "popupContent": "<b style='color:#2e7d32;'>【公開中】</b><br><b>【2025年大阪・関西万博ロゴシンボルモニュメント】</b><br>📅 期間: 2024/03/30 ～ 常設<br>📝 万博の記憶を残すロゴシンボルモニュメント<br><br><a href='https://www.city.osaka.lg.jp/konohana/page/0000623590.html' target='_blank'>🔗 詳細を開く</a>",
        "category": "legacy",
        "isStore": false,
        "isKomyaku": false,
        "link": "https://www.city.osaka.lg.jp/konohana/page/0000623590.html",
        "image_url": "https://www.city.osaka.lg.jp/konohana/css/img/ogp_image.png"
      },
      "geometry": {
        "type": "Point",
        "coordinates": [
          135.4577586,
          34.68638324
        ]
      }
    },
    {
      "type": "Feature",
      "properties": {
        "name": "CELL ART（こみゃく）2体",
        "popupContent": "<b style='color:#2e7d32;'>【公開中】</b><br><b>【CELL ART（こみゃく）2体】</b><br>📅 期間: 2025/06/04 ～ 常設<br>📝 いのちを象徴する2体の「こみゃく（CELL ART）」が設置されています。広く親しまれたこみゃくの多様な姿は、個とつながりの象徴です。<br><br><a href='https://www.city.osaka.lg.jp/konohana/page/0000623590.html' target='_blank'>🔗 詳細を開く</a>",
        "category": "legacy",
        "isStore": false,
        "isKomyaku": true,
        "link": "https://www.city.osaka.lg.jp/konohana/page/0000623590.html",
        "image_url": "https://www.city.osaka.lg.jp/konohana/css/img/ogp_image.png"
      },
      "geometry": {
        "type": "Point",
        "coordinates": [
          135.4577353,
          34.68642061
        ]
      }
    },
    {
      "type": "Feature",
      "properties": {
        "name": "こみゃく（※MUIC Kansai施設内）",
        "popupContent": "<b style='color:#2e7d32;'>【公開中】</b><br><b>【こみゃく（※MUIC Kansai施設内）】</b><br>📅 期間: 2023/06/08 ～ 常設<br>📝 いのちを象徴する「こみゃく」が設置されています。広く親しまれたこみゃくの多様な姿は、個とつながりの象徴です。<br><br><a href='https://www.muic-kansai.jp/news/20230608.html' target='_blank'>🔗 詳細を開く</a>",
        "category": "legacy",
        "isStore": false,
        "isKomyaku": true,
        "link": "https://www.muic-kansai.jp/news/20230608.html",
        "image_url": "https://www.muic-kansai.jp/img/share/ogimage.png"
      },
      "geometry": {
        "type": "Point",
        "coordinates": [
          135.5012244,
          34.68916995
        ]
      }
    },
    {
      "type": "Feature",
      "properties": {
        "name": "（予定）本町ミャクミャクステーション【跡地】",
        "popupContent": "<b style='color:#e67e22;'>【予定】</b><br><b>【本町ミャクミャクステーション【跡地】】</b><br>📅 期間: ---- ～ 2026/4/29<br>📝 かつてOsaka Metro御堂筋線「本町駅」で、非公式の常設展示としてファンや通勤客に愛されてきた『本町ミャクミャクステーション』がありました。駅員さんの発案で始まり、ミャクミャクや海外パビリオンのキャラクターなど約50体のぬいぐるみが並ぶ姿はまるで小さな万博会場でした。万博のワクワク感を届けてくれた心温まる展示で、展示終了時には多くの万博ファンの方々が訪れました。<br><br><a href='https://www.lmaga.jp/news/2026/04/1050001/' target='_blank'>🔗 詳細を開く</a>",
        "category": "legacy",
        "isStore": false,
        "isKomyaku": false,
        "link": "https://www.lmaga.jp/news/2026/04/1050001/",
        "image_url": ""
      },
      "geometry": {
        "type": "Point",
        "coordinates": [
          135.5007822,
          34.68302377
        ]
      }
    },
    {
      "type": "Feature",
      "properties": {
        "name": "大阪万博石黒館のアンドロイド",
        "popupContent": "<b style='color:#2e7d32;'>【公開中】</b><br><b>【大阪万博石黒館のアンドロイド】</b><br>📅 期間: 2026/05/09 ～ ----<br>📝 大阪・関西万博のシグネチャーパビリオン「いのちの未来」で展示されていたアンドロイド計3体が東京都多摩市の「長谷工マンションミュージアム」に移設されました。<br><br><a href='https://www.nikkei.com/article/DGXZQOUC304D50Q6A430C2000000/' target='_blank'>🔗 詳細を開く</a>",
        "category": "legacy",
        "isStore": false,
        "isKomyaku": false,
        "link": "https://www.nikkei.com/article/DGXZQOUC304D50Q6A430C2000000/",
        "image_url": "https://article-image-ix.nikkei.com/https%3A%2F%2Fimgix-proxy.n8s.jp%2FDSXZQO2964712030042026000000-2.jpg?auto=compress&bg=FFFF&crop=focalpoint&fit=crop&fm=jpg&fp-x=0.26&fp-y=0.2&h=630&w=1200&s=d2cb6300680e3933b5ab252098c32671"
      },
      "geometry": {
        "type": "Point",
        "coordinates": [
          139.4216147,
          35.62033218
        ]
      }
    },
    {
      "type": "Feature",
      "properties": {
        "name": "（予定）Dialogue　Theater（ダイアローグ・シアター）－いのちのあかし－",
        "popupContent": "<b style='color:#e67e22;'>【予定】</b><br><b>【Dialogue　Theater（ダイアローグ・シアター）－いのちのあかし－】</b><br>📅 期間: 2028年予定 ～ ----<br>📝 （ピンは泉佐野丘陵緑地の代表地点です）大阪・関西万博で河瀬直美氏が手掛けたパビリオン「ダイアローグ・シアター」が大阪府泉佐野市へ移設されます。もともとは京都の旧中出分校を活用した施設で、文化・交流拠点として2028年度中の開館を目指します。樹齢100年のイチョウも共に移されるとのこと。\n<br><br><a href='https://news.yahoo.co.jp/articles/f1906c5123834e85d2424e4bf7d99da119755c65' target='_blank'>🔗 詳細を開く</a>",
        "category": "legacy",
        "isStore": false,
        "isKomyaku": false,
        "link": "https://news.yahoo.co.jp/articles/f1906c5123834e85d2424e4bf7d99da119755c65",
        "image_url": "https://newsatcl-pctr.c.yimg.jp/t/amd-img/20260424-00010000-rtn-000-1-view.jpg?exp=10800"
      },
      "geometry": {
        "type": "Point",
        "coordinates": [
          135.3314389,
          34.36788535
        ]
      }
    },
    {
      "type": "Feature",
      "properties": {
        "name": "（ランチ限定）「ナウル飯2種」東大阪市役所22階レストラン　",
        "popupContent": "<b style='color:#2e7d32;'>【公開中】</b><br><b>【（ランチ限定）「ナウル飯2種」東大阪市役所22階レストラン　】</b><br>📅 期間: 2025/11/25 ～ ----<br>📝 万博を機に交流を深める東大阪市とナウル共和国。市役所22階の展望レストランでは現在、パビリオン総監督の助言で作られた「ナウル飯」2種を限定提供中！名物の魚＆ココナツ料理で全国のファンをおもてなし！<br><br><a href='https://www.city.higashiosaka.lg.jp/0000015184.html' target='_blank'>🔗 詳細を開く</a>",
        "category": "legacy",
        "isStore": false,
        "isKomyaku": false,
        "link": "https://www.city.higashiosaka.lg.jp/0000015184.html",
        "image_url": "https://www.city.higashiosaka.lg.jp/design_img/og_image.png"
      },
      "geometry": {
        "type": "Point",
        "coordinates": [
          135.6008228,
          34.67942527
        ]
      }
    },
    {
      "type": "Feature",
      "properties": {
        "name": "国営ナウル共和国石切参道パビリオン／ナウル屋",
        "popupContent": "<b style='color:#2e7d32;'>【公開中】</b><br><b>【国営ナウル共和国石切参道パビリオン／ナウル屋】</b><br>📅 期間: 2025/12/07 ～ ----<br>📝 ナウル共和国石切参道パビリオン、ナウル共和国政府観光局の公式グッズ販売店<br><br><a href='https://www.instagram.com/nauruya_higashiosaka/' target='_blank'>🔗 詳細を開く</a>",
        "category": "legacy",
        "isStore": false,
        "isKomyaku": false,
        "link": "https://www.instagram.com/nauruya_higashiosaka/",
        "image_url": "https://static.cdninstagram.com/rsrc.php/v4/yD/r/R0fBIMurK8v.png"
      },
      "geometry": {
        "type": "Point",
        "coordinates": [
          135.6490291,
          34.68162292
        ]
      }
    },
    {
      "type": "Feature",
      "properties": {
        "name": "ナウル共和国パビリオン「ナウル台座」",
        "popupContent": "<b style='color:#2e7d32;'>【公開中】</b><br><b>【ナウル共和国パビリオン「ナウル台座」】</b><br>📅 期間: 常設 / 時期----<br>📝 万博で展示物が届かず「心がきれいな人には見える」とSNSで話題を呼んだナウル共和国の空の台座。展示物遅延を逆手にとったSNS投稿で万博を沸かせた同国の展示や他国の品々が、交流協定を結ぶ東大阪市役所22階に移設されています。<br><br><a href='https://www.city.kashiwara.lg.jp/docs/2025121800023/' target='_blank'>🔗 詳細を開く</a>",
        "category": "legacy",
        "isStore": false,
        "isKomyaku": false,
        "link": "https://www.city.kashiwara.lg.jp/docs/2025121800023/",
        "image_url": ""
      },
      "geometry": {
        "type": "Point",
        "coordinates": [
          135.600985,
          34.67946491
        ]
      }
    },
    {
      "type": "Feature",
      "properties": {
        "name": "ポルトガル館のロープ",
        "popupContent": "<b style='color:#2e7d32;'>【公開中】</b><br><b>【ポルトガル館のロープ】</b><br>📅 期間: 2026/05/07 ～ ----<br>📝 市民交流センターwakkaにてポルトガル館の外壁に飾られていたロープが設置されています。このロープは海洋国家ポルトガルの帆船や波を表現し、リサイクル漁網などのサステナブルな素材が使用されています。<br><br><a href='https://www.city.kashiwara.lg.jp/docs/2025121800023/' target='_blank'>🔗 詳細を開く</a>",
        "category": "legacy",
        "isStore": false,
        "isKomyaku": false,
        "link": "https://www.city.kashiwara.lg.jp/docs/2025121800023/",
        "image_url": ""
      },
      "geometry": {
        "type": "Point",
        "coordinates": [
          135.6335513,
          34.57642579
        ]
      }
    },
    {
      "type": "Feature",
      "properties": {
        "name": "ポルトガル館のロープ",
        "popupContent": "<b style='color:#2e7d32;'>【公開中】</b><br><b>【ポルトガル館のロープ】</b><br>📅 期間: 2026/02/24 ～ ----<br>📝 天神橋筋4丁目北商店街にてポルトガル館の外壁に飾られていたロープが設置されています。このロープは海洋国家ポルトガルの帆船や波を表現し、リサイクル漁網などのサステナブルな素材が使用されています。<br><br><a href='https://osaka-shotengai-info.com/bampaku/tenyonkita/' target='_blank'>🔗 詳細を開く</a>",
        "category": "legacy",
        "isStore": false,
        "isKomyaku": false,
        "link": "https://osaka-shotengai-info.com/bampaku/tenyonkita/",
        "image_url": ""
      },
      "geometry": {
        "type": "Point",
        "coordinates": [
          135.5113526,
          34.70768033
        ]
      }
    },
    {
      "type": "Feature",
      "properties": {
        "name": "ポルトガル館のロープ",
        "popupContent": "<b style='color:#2e7d32;'>【公開中】</b><br><b>【ポルトガル館のロープ】</b><br>📅 期間: 2026/02/24 ～ ----<br>📝 天神橋筋5丁目北商店街にてポルトガル館の外壁に飾られていたロープが設置されています。このロープは海洋国家ポルトガルの帆船や波を表現し、リサイクル漁網などのサステナブルな素材が使用されています。<br><br><a href='https://osaka-shotengai-info.com/bampaku/tenyonkita/' target='_blank'>🔗 詳細を開く</a>",
        "category": "legacy",
        "isStore": false,
        "isKomyaku": false,
        "link": "https://osaka-shotengai-info.com/bampaku/tenyonkita/",
        "image_url": ""
      },
      "geometry": {
        "type": "Point",
        "coordinates": [
          135.5113795,
          34.70563459
        ]
      }
    },
    {
      "type": "Feature",
      "properties": {
        "name": "クラゲ館の音響体験「わたしを聴く」2日間限定復活",
        "popupContent": "<b style='color:#2e7d32;'>【公開中】</b><br><b>【クラゲ館の音響体験「わたしを聴く」2日間限定復活】</b><br>📅 期間: 2026/05/30 ～ 常設<br>📝 御茶ノ水 RITTOR BASE大阪・関西万博の「いのちの遊び場 クラゲ館」で大人気だった没入型立体音響体験「わたしを聴く」が、5月30日・31日の2日間限定で東京・御茶ノ水のRITTOR BASEにサウンドインスタレーションとして復活！<br><br><a href='https://prtimes.jp/main/html/rd/p/000000087.000134299.html' target='_blank'>🔗 詳細を開く</a>",
        "category": "legacy",
        "isStore": false,
        "isKomyaku": false,
        "link": "https://prtimes.jp/main/html/rd/p/000000087.000134299.html",
        "image_url": "https://prcdn.freetls.fastly.net/release_image/134299/87/134299-87-d6c8c3bfbaf5b08c5bc643a99aa662de-920x450.jpg?format=jpeg&auto=webp&fit=bounds&width=2400&height=1260"
      },
      "geometry": {
        "type": "Point",
        "coordinates": [
          139.7627238,
          35.69921988
        ]
      }
    },
    {
      "type": "Feature",
      "properties": {
        "name": "（予定）null²ⁿ（ヌルヌルネクサス）",
        "popupContent": "<b style='color:#e67e22;'>【予定】</b><br><b>【null²ⁿ（ヌルヌルネクサス）】</b><br>📅 期間: 2026年中 ～ 常設<br>📝 横浜ランドマークタワーにイマーシブシアター「null²ⁿ（ヌルヌルネクサス）」が登場！<br><br><a href='https://null2.nexus/' target='_blank'>🔗 詳細を開く</a>",
        "category": "legacy",
        "isStore": false,
        "isKomyaku": false,
        "link": "https://null2.nexus/",
        "image_url": "https://null2.nexus/ogp.jpg"
      },
      "geometry": {
        "type": "Point",
        "coordinates": [
          139.6314074,
          35.45512879
        ]
      }
    },
    {
      "type": "Feature",
      "properties": {
        "name": "（予定）null⁴（テトラﾇﾙ）",
        "popupContent": "<b style='color:#e67e22;'>【予定】</b><br><b>【null⁴（テトラﾇﾙ）】</b><br>📅 期間: 2027/03/19 ～ 2027/09/26<br>📝 大阪・関西万博で大反響を呼んだ落合陽一氏の「null²」が、「null⁴（テトラﾇﾙ）」として新たな姿へと転生！2027年開催の「GREEN×EXPO 2027（SATOYAMA Village）」に登場します。今回はインド思想「テトラレンマ」を冠する4棟のタワーと、チベット仏教の巨大なマニ車のような回転オブジェで構成。会場の花や空、風、そして来場者の影を回転する鏡面に取り込み、風景を変換しながらインタラクティブな空間を表現するとのこと。<br><br><a href='https://expo2027.digitalnatureandarts.or.jp/' target='_blank'>🔗 詳細を開く</a>",
        "category": "legacy",
        "isStore": false,
        "isKomyaku": false,
        "link": "https://expo2027.digitalnatureandarts.or.jp/",
        "image_url": "https://expo2027.digitalnatureandarts.or.jp/images/null4_ogp-image.jpg"
      },
      "geometry": {
        "type": "Point",
        "coordinates": [
          139.4865773,
          35.49128031
        ]
      }
    },
    {
      "type": "Feature",
      "properties": {
        "name": "くら寿司　メモリアル店　なんば千日前",
        "popupContent": "<b style='color:#2e7d32;'>【公開中】</b><br><b>【くら寿司　メモリアル店　なんば千日前】</b><br>📅 期間: 2026/05/14 ～ 常設<br>📝 大阪・関西万博店のレガシーを引き継いだメモリアル店舗<br><br><a href='https://www.agara.co.jp/article/616843' target='_blank'>🔗 詳細を開く</a>",
        "category": "legacy",
        "isStore": true,
        "isKomyaku": false,
        "link": "https://www.agara.co.jp/article/616843",
        "image_url": "https://kyodonewsprwire.jp/prwfile/release/M102330/202603266331/_prw_PI1im_hd51btS3.jpg"
      },
      "geometry": {
        "type": "Point",
        "coordinates": [
          135.5035045,
          34.66627708
        ]
      }
    },
    {
      "type": "Feature",
      "properties": {
        "name": "祈器",
        "popupContent": "<b style='color:#2e7d32;'>【公開中】</b><br><b>【祈器】</b><br>📅 期間: 2026/04/01 ～ 常設<br>📝 陶芸家・建築家の奈良祐希が制作した「祈器」は高さ2.4m・重さ3トンの巨大なアート作品。世界の国数と同じ196枚のアルミプレートで「手と手を合わせる地球」を形作り、能登半島地震からの復興への祈りを込め造形された。大阪・関西万博では「光の広場」に展示されていた。<br><br><a href='https://news.yahoo.co.jp/articles/7ad0ac6f042e568649a5815dae17c972c9d20400' target='_blank'>🔗 詳細を開く</a>",
        "category": "legacy",
        "isStore": false,
        "isKomyaku": false,
        "link": "https://news.yahoo.co.jp/articles/7ad0ac6f042e568649a5815dae17c972c9d20400",
        "image_url": "https://newsatcl-pctr.c.yimg.jp/t/amd-img/20260406-00000004-btecho-000-1-view.jpg?exp=10800"
      },
      "geometry": {
        "type": "Point",
        "coordinates": [
          136.659299,
          36.56233641
        ]
      }
    },
    {
      "type": "Feature",
      "properties": {
        "name": "大屋根リング",
        "popupContent": "<b style='color:#2e7d32;'>【公開中】</b><br><b>【大屋根リング】</b><br>📅 期間: 2024/08/21 ～ 工事<br>📝 大阪・関西万博のシンボル「大屋根リング」は、「多様でありながら、ひとつ」という会場デザインの理念を体現する巨大な建築物です。日本の伝統的な「貫（ぬき）接合」と現代技術を融合させて造られており、会場の主動線としてだけでなく、雨や日差しを遮る快適な滞留空間を提供します。建築面積約6.1万㎡、外径約675mにおよぶこの木造回廊は、2025年3月4日に「最大の木造建築物」としてギネス世界記録™にも認定されました。当初は閉幕後に全解体される計画でしたが、万博のレガシーとして北東部分の約200メートルが現地保存されることになりました。今後は周辺を含め市営公園として整備・管理される予定です。<br><br><a href='https://www.expo2025.or.jp/expo-map-index/main-facilities/grandring/' target='_blank'>🔗 詳細を開く</a>",
        "category": "legacy",
        "isStore": false,
        "isKomyaku": false,
        "link": "https://www.expo2025.or.jp/expo-map-index/main-facilities/grandring/",
        "image_url": "http://img.youtube.com/vi/eECndMY-WV0/maxresdefault.jpg"
      },
      "geometry": {
        "type": "Point",
        "coordinates": [
          135.3867906,
          34.64989736
        ]
      }
    },
    {
      "type": "Feature",
      "properties": {
        "name": "「クウェートパビリオン」一部を佐賀県立産業技術学院へ移設",
        "popupContent": "<b style='color:#2e7d32;'>【公開中】</b><br><b>【「クウェートパビリオン」一部を佐賀県立産業技術学院へ移設】</b><br>📅 期間: 常設 / 時期----<br>📝 山口産業株式会社は、自社が建設に携わった大阪・関西万博「クウェートパビリオン」の一部を佐賀県へ寄贈し、多久市の佐賀県立産業技術学院へ移設します。<br><br><a href='https://prtimes.jp/main/html/rd/p/000000024.000100006.html' target='_blank'>🔗 詳細を開く</a>",
        "category": "legacy",
        "isStore": false,
        "isKomyaku": false,
        "link": "https://prtimes.jp/main/html/rd/p/000000024.000100006.html",
        "image_url": "https://prcdn.freetls.fastly.net/release_image/100006/24/100006-24-ff86f25dd8ede17b93f1d94ae2d47f89-2500x1666.jpg?format=jpeg&auto=webp&fit=bounds&width=2400&height=1260"
      },
      "geometry": {
        "type": "Point",
        "coordinates": [
          130.092658,
          33.28253384
        ]
      }
    },
    {
      "type": "Feature",
      "properties": {
        "name": "ミャクミャクモニュメント「ワクワク」設置予定",
        "popupContent": "<b style='color:#2e7d32;'>【公開中】</b><br><b>【ミャクミャクモニュメント「ワクワク」設置予定】</b><br>📅 期間: 時期---- ～ 2026年11月予定<br>📝 2026年9月〜11月にミャクミャクモニュメント「ワクワク」がちはや園地に設置予定です。<br><br><a href='https://www.pref.osaka.lg.jp/hodo/fumin/o120030/prs_51172.html' target='_blank'>🔗 詳細を開く</a>",
        "category": "legacy",
        "isStore": false,
        "isKomyaku": false,
        "link": "https://www.pref.osaka.lg.jp/hodo/fumin/o120030/prs_51172.html",
        "image_url": "https://www.pref.osaka.lg.jp/shared/images/sns/logo.jpg"
      },
      "geometry": {
        "type": "Point",
        "coordinates": [
          135.677444,
          34.410972
        ]
      }
    },
    {
      "type": "Feature",
      "properties": {
        "name": "ネスタリゾート神戸万博レガシーウォール「ザ・ループ」",
        "popupContent": "<b style='color:#2e7d32;'>【公開中】</b><br><b>【ネスタリゾート神戸万博レガシーウォール「ザ・ループ」】</b><br>📅 期間: 2026/05/26 ～ 常設<br>📝 大阪・関西万博のルクセンブルク・パビリオンを支えた基礎コンクリートブロック220個が、兵庫県のネスタリゾート神戸で全長150mのミューラルアート作品『万博レガシーウォール「ザ・ループ」』として生まれ変わりました！制作したのは兵庫県在住のアーティスト・KAC氏。車中泊しながら2週間で描き上げた作品には、ルクセンブルクのバラや三木刃物、ネスタリゾートの各アトラクションなど多彩なモチーフが散りばめられています。廃棄されるはずだった建材を再利用したこのプロジェクトは、2027年に外交関係樹立100周年を迎える日本とルクセンブルク両国の交流のシンボルとしても注目されています。<br><br><a href='https://news.yahoo.co.jp/articles/c34fa7252cf3141e353bbc35f7142d29d7388793' target='_blank'>🔗 詳細を開く</a>",
        "category": "legacy",
        "isStore": false,
        "isKomyaku": false,
        "link": "https://news.yahoo.co.jp/articles/c34fa7252cf3141e353bbc35f7142d29d7388793",
        "image_url": "https://newsatcl-pctr.c.yimg.jp/t/amd-img/20260527-01059543-lmaga-000-1-view.jpg?exp=10800"
      },
      "geometry": {
        "type": "Point",
        "coordinates": [
          135.0594555,
          34.81604539
        ]
      }
    },
    {
      "type": "Feature",
      "properties": {
        "name": "EXPO2025公式ストアが新大阪駅に期間限定で復活！「23・24番線ホーム 7号車付近」",
        "popupContent": "<b style='color:#2e7d32;'>【公開中】</b><br><b>【EXPO2025公式ストアが新大阪駅に期間限定で復活！「23・24番線ホーム 7号車付近」】</b><br>📅 期間: 2026/06/01 ～ 2026/07/05<br>📝 万博期間中に惜しまれつつ営業を終えた公式ストアが、お客さんの声を受けて新大阪駅の新幹線ホーム上に期間限定で再登場！雑貨を中心に、EXPO2025の思い出をもう一度手に取れるスポットです。<br><br><a href='https://www.jr-plus.co.jp/news/2026/05/000736/' target='_blank'>🔗 詳細を開く</a>",
        "category": "legacy",
        "isStore": true,
        "isKomyaku": false,
        "link": "https://www.jr-plus.co.jp/news/2026/05/000736/",
        "image_url": "https://www.jr-plus.co.jp/files/2025%E5%A4%A7%E9%98%AA%E3%83%BB%E9%96%A2%E8%A5%BF%E4%B8%87%E5%8D%9A%E3%82%AA%E3%83%95%E3%82%A3%E3%82%B7%E3%83%A3%E3%83%AB%E3%82%B9%E3%83%88%E3%82%A2%20JR%E6%96%B0%E5%A4%A7%E9%98%AA%E9%A7%85%20%E6%96%B0%E5%B9%B9%E7%B7%9A%E3%83%9B%E3%83%BC%E3%83%A0%E5%BA%97.jpg"
      },
      "geometry": {
        "type": "Point",
        "coordinates": [
          135.5002572,
          34.73349689
        ]
      }
    },
    {
      "type": "Feature",
      "properties": {
        "name": "万博パビリオンを彩った西陣織が大阪公立大学で常設展示へ！",
        "popupContent": "<b style='color:#2e7d32;'>【公開中】</b><br><b>【万博パビリオンを彩った西陣織が大阪公立大学で常設展示へ！】</b><br>📅 期間: 2026/05/25 ～ 常設<br>📝 大阪・関西万博の「飯田グループ×大阪公立大学共同出展館」で外装に使われた美しい西陣織が、屏風状に加工されて森之宮キャンパスへ移設されました。パビリオンのレプリカとともに、万博の記憶と日本の伝統美を未来へつなぐ常設展示です。<br><br><a href='https://www.omu.ac.jp/info/news/entry-24179.html' target='_blank'>🔗 詳細を開く</a>",
        "category": "legacy",
        "isStore": false,
        "isKomyaku": false,
        "link": "https://www.omu.ac.jp/info/news/entry-24179.html",
        "image_url": "https://www.omu.ac.jp/assets/attachmentfile/attachmentfile-file-94276.jpg"
      },
      "geometry": {
        "type": "Point",
        "coordinates": [
          135.5393503,
          34.68706212
        ]
      }
    },
    {
      "type": "Feature",
      "properties": {
        "name": "変なホテル大阪 心斎橋 みゃくみゃくルーム 期間延長！",
        "popupContent": "<b style='color:#2e7d32;'>【公開中】</b><br><b>【変なホテル大阪 心斎橋 みゃくみゃくルーム 期間延長！】</b><br>📅 期間: 時期---- ～ 2026/06/30<br>📝 EXPO2025公式キャラクター・ミャクミャクの世界観を体験できる特別な客室「ミャクミャクコラボルーム」「ミャクミャクコラボルームプレミア」の宿泊対象期間が、2026年6月30日（火）宿泊分まで延長されることになりました。<br><br><a href='https://www.hennnahotel.com/shinsaibashi/news/5285/' target='_blank'>🔗 詳細を開く</a>",
        "category": "legacy",
        "isStore": false,
        "isKomyaku": false,
        "link": "https://www.hennnahotel.com/shinsaibashi/news/5285/",
        "image_url": ""
      },
      "geometry": {
        "type": "Point",
        "coordinates": [
          135.5021893,
          34.67574972
        ]
      }
    },
    {
      "type": "Feature",
      "properties": {
        "name": "変なホテル大阪 なんば みゃくみゃくルーム 期間延長！",
        "popupContent": "<b style='color:#2e7d32;'>【公開中】</b><br><b>【変なホテル大阪 なんば みゃくみゃくルーム 期間延長！】</b><br>📅 期間: 時期---- ～ 2026/06/30<br>📝 EXPO2025公式キャラクター・ミャクミャクの世界観を体験できる特別な客室「ミャクミャクコラボルーム」「ミャクミャクコラボルームプレミア」の宿泊対象期間が、2026年6月30日（火）宿泊分まで延長されることになりました。<br><br><a href='https://www.hennnahotel.com/nishishinsaibashi/news/4767/' target='_blank'>🔗 詳細を開く</a>",
        "category": "legacy",
        "isStore": false,
        "isKomyaku": false,
        "link": "https://www.hennnahotel.com/nishishinsaibashi/news/4767/",
        "image_url": ""
      },
      "geometry": {
        "type": "Point",
        "coordinates": [
          135.4985503,
          34.67133453
        ]
      }
    },
    {
      "type": "Feature",
      "properties": {
        "name": "大型壁画「希望の系譜」移設",
        "popupContent": "<b style='color:#2e7d32;'>【公開中】</b><br><b>【大型壁画「希望の系譜」移設】</b><br>📅 期間: 2026/05/31 ～ 常設<br>📝 大阪・関西万博の西ゲート前に展示されていた、アーティストBAKIBAKI氏による大型壁画『希望の系譜』が、ホテルプラザオーサカ敷地内へ移設されました。本来は解体予定だった作品が、クラウドファンディングによる支援を受け、地域の日常の中で自由に鑑賞できるパブリックアートとして生まれ変わったとのこと！十三エリアの淀壁プロジェクトともつながる、新たな万博レガシースポットです。\r<br><br><a href='https://prtimes.jp/main/html/rd/p/000000010.000135416.html' target='_blank'>🔗 詳細を開く</a>",
        "category": "legacy",
        "isStore": false,
        "isKomyaku": false,
        "link": "https://prtimes.jp/main/html/rd/p/000000010.000135416.html",
        "image_url": "https://prcdn.freetls.fastly.net/release_image/135416/10/135416-10-ea212ec47075bd421cd1f9080fbd7b7b-1477x1108.jpg?format=jpeg&auto=webp&fit=bounds&width=2400&height=1260"
      },
      "geometry": {
        "type": "Point",
        "coordinates": [
          135.4808346,
          34.71695467
        ]
      }
    },
    {
      "type": "Feature",
      "properties": {
        "name": "（予定）タカラベルモント株式会社 東京本社で1日限定のアフター万博イベント開催！",
        "popupContent": "<b style='color:#e67e22;'>【予定】</b><br><b>【タカラベルモント株式会社 東京本社で1日限定のアフター万博イベント開催！】</b><br>📅 期間: 2026/08/08 ～ 2026/08/08<br>📝 万博LOVERSに向けたアフター万博イベントが、8月8日(土)11時〜16時に東京本社で1日限定開催されるとのこと！<br><br><a href='https://x.com/yukikoishi81071/status/2061429568830148840' target='_blank'>🔗 詳細を開く</a>",
        "category": "legacy",
        "isStore": false,
        "isKomyaku": false,
        "link": "https://x.com/yukikoishi81071/status/2061429568830148840",
        "image_url": "https://pbs.twimg.com/media/HJurQZFaEAAZswC.jpg:large"
      },
      "geometry": {
        "type": "Point",
        "coordinates": [
          139.7302103,
          35.67459209
        ]
      }
    },
    {
      "type": "Feature",
      "properties": {
        "name": "（予定）いのちの未来＋ が東京・高輪で開催！",
        "popupContent": "<b style='color:#e67e22;'>【予定】</b><br><b>【いのちの未来＋ が東京・高輪で開催！】</b><br>📅 期間: 2026/07/25 ～ 2026/09/25<br>📝 大阪・関西万博で話題となった、石黒浩氏によるシグネチャーパビリオン「いのちの未来」が、東京・高輪で企画展示「いのちの未来＋」として開催されます！万博で描かれた50年後の物語に加え、新たに いのちの未来の選択について のシナリオも追加。アンドロイドとの対話体験やグッズ販売、来場者特典も予定されており、万博の感動を東京でもう一度体験できるレガシー展示です。\r\n\r\n開催期間は2026年7月25日〜9月25日。30分ごとの日時指定制で、第1期は6月12日からチケット販売開始予定とのこと！<br><br><a href='https://news.yahoo.co.jp/articles/b714866bb0c4930ae1e425749b07a48560237628' target='_blank'>🔗 詳細を開く</a>",
        "category": "legacy",
        "isStore": false,
        "isKomyaku": false,
        "link": "https://news.yahoo.co.jp/articles/b714866bb0c4930ae1e425749b07a48560237628",
        "image_url": ""
      },
      "geometry": {
        "type": "Point",
        "coordinates": [
          139.7398603,
          35.63575782
        ]
      }
    },
    {
      "type": "Feature",
      "properties": {
        "name": "（予定）株式会社海洋堂　ミャクミャクのカプセルフィギュアにモノクロカラーが登場！",
        "popupContent": "<b style='color:#e67e22;'>【予定】</b><br><b>【株式会社海洋堂　ミャクミャクのカプセルフィギュアにモノクロカラーが登場！】</b><br>📅 期間: 2026/10/01 ～ （予定）<br>📝 大阪・関西万博公式キャラクター「ミャクミャク」の手のひらサイズのカプセルフィギュアに、モノクロカラーが追加されて再登場するとのこと！価格は1回400円（税込）で、全12種。<br><br><a href='https://x.com/kaiyodo_PR/status/2062368756530348433' target='_blank'>🔗 詳細を開く</a>",
        "category": "legacy",
        "isStore": true,
        "isKomyaku": false,
        "link": "https://x.com/kaiyodo_PR/status/2062368756530348433",
        "image_url": "https://pbs.twimg.com/media/HJ76hqubkAAZVaD.jpg:large"
      },
      "geometry": {
        "type": "Point",
        "coordinates": [
          135.5887426,
          34.73527778
        ]
      }
    },
    {
      "type": "Feature",
      "properties": {
        "name": "中之島クロスでDotHealth カラダ測定サービスが提供開始！",
        "popupContent": "<b style='color:#2e7d32;'>【公開中】</b><br><b>【中之島クロスでDotHealth カラダ測定サービスが提供開始！】</b><br>📅 期間: 2026/05/28 ～ 常設<br>📝 大阪・関西万博の会期中、大阪ヘルスケアパビリオンに設置され、予約が取れないほど多くの利用者でにぎわった「カラダ測定ポッド」が、5/28より万博レガシーを継承する未来医療拠点・中之島クロスにも設置されました。\n\n「DotHealth カラダ測定サービス」では、脳、心血管、髪、筋骨格、肌、歯などの測定結果を確認でき、自分の健康をより身近に感じられる内容となっています。<br><br><a href='https://prtimes.jp/main/html/rd/p/000001162.000008062.html' target='_blank'>🔗 詳細を開く</a>",
        "category": "legacy",
        "isStore": false,
        "isKomyaku": false,
        "link": "https://prtimes.jp/main/html/rd/p/000001162.000008062.html",
        "image_url": "https://prcdn.freetls.fastly.net/release_image/8062/1162/8062-1162-3fbd5a5d227085c4d48b586de1f55f12-1200x630.jpg?format=jpeg&auto=webp&fit=bounds&width=2400&height=1260"
      },
      "geometry": {
        "type": "Point",
        "coordinates": [
          135.490461,
          34.69254762
        ]
      }
    },
    {
      "type": "Feature",
      "properties": {
        "name": "EXPO2025公式ポップアップストア　高島屋大阪店",
        "popupContent": "<b style='color:#2e7d32;'>【公開中】</b><br><b>【EXPO2025公式ポップアップストア　高島屋大阪店】</b><br>📅 期間: 2026/06/10 ～ 2026/06/22<br>📝 2026年1月の開催で大好評を博したEXPO2025オフィシャルポップアップストアが、6月10日(水)〜22日(月)に高島屋大阪店で再びオープンします。<br><br><a href='https://www.takashimaya.co.jp/osaka/topics/10_1_20260508140607/?category=event#contents' target='_blank'>🔗 詳細を開く</a>",
        "category": "legacy",
        "isStore": true,
        "isKomyaku": false,
        "link": "https://www.takashimaya.co.jp/osaka/topics/10_1_20260508140607/?category=event#contents",
        "image_url": ""
      },
      "geometry": {
        "type": "Point",
        "coordinates": [
          135.5012204,
          34.6647986
        ]
      }
    },
    {
      "type": "Feature",
      "properties": {
        "name": "（予定）ミャクミャクのたおぐるみ.ecoが登場！",
        "popupContent": "<b style='color:#e67e22;'>【予定】</b><br><b>【ミャクミャクのたおぐるみ.ecoが登場！】</b><br>📅 期間: 2026/06/26 ～ 常設<br>📝 大阪・関西万博公式キャラクター・ミャクミャクの新グッズとして、手触りも楽しめる たおぐるみ.eco が登場します。綿100％の未利用素材を活用したアイテムで、画面クリーナーとしても使える便利仕様とのこと！\r\n\r\nTikTok LIVEでの先行販売は6/17（水）20:00〜、店頭発売は6/26（金）予定。万博の思い出を日常使いできるグッズとして楽しめそうです。\r<br><br><a href='https://x.com/towelmuseumboy/status/2061960021760721196' target='_blank'>🔗 詳細を開く</a>",
        "category": "legacy",
        "isStore": true,
        "isKomyaku": false,
        "link": "https://x.com/towelmuseumboy/status/2061960021760721196",
        "image_url": "https://pbs.twimg.com/media/HJ2NtUJbwAAiaqS.jpg:large"
      },
      "geometry": {
        "type": "Point",
        "coordinates": [
          133.0326905,
          33.96948839
        ]
      }
    },
    {
      "type": "Feature",
      "properties": {
        "name": "SENNAN LONG PARKに、ミャクミャクモニュメント「ワクワク」が登場します！",
        "popupContent": "<b style='color:#2e7d32;'>【公開中】</b><br><b>【SENNAN LONG PARKに、ミャクミャクモニュメント「ワクワク」が登場します！】</b><br>📅 期間: 2026/06/06 ～ 2026/08/31<br>📝 設置期間は6/6(土)〜8/31(月)の予定。<br><br><a href='https://sennanlongpark.com/?xo_event=2026%E5%B9%B46%E6%9C%886%E6%97%A5%E5%9C%9F%EF%BC%89%EF%BD%9E8%E6%9C%8831%E6%97%A5%E6%9C%88-sennanlongpark%E3%81%AB%E3%83%9F%E3%83%A3%E3%82%AF%E3%83%9F%E3%83%A3%E3%82%AF%E3%81%8C%E3%82%84%E3%81%A3' target='_blank'>🔗 詳細を開く</a>",
        "category": "legacy",
        "isStore": false,
        "isKomyaku": false,
        "link": "https://sennanlongpark.com/?xo_event=2026%E5%B9%B46%E6%9C%886%E6%97%A5%E5%9C%9F%EF%BC%89%EF%BD%9E8%E6%9C%8831%E6%97%A5%E6%9C%88-sennanlongpark%E3%81%AB%E3%83%9F%E3%83%A3%E3%82%AF%E3%83%9F%E3%83%A3%E3%82%AF%E3%81%8C%E3%82%84%E3%81%A3",
        "image_url": ""
      },
      "geometry": {
        "type": "Point",
        "coordinates": [
          135.2620329,
          34.37931397
        ]
      }
    },
    {
      "type": "Feature",
      "properties": {
        "name": "【LIVE】解体進む万博会場・大屋根リング動画撮影場所",
        "popupContent": "<b style='color:#2e7d32;'>【公開中】</b><br><b>【【LIVE】解体進む万博会場・大屋根リング動画撮影場所】</b><br>📅 期間: 2026/06/06 ～ 常設<br>📝 解体作業が進む万博会場や大屋根リング、夢洲・舞洲・大阪湾の景色に加え、2030年開業予定のIR建設の様子も見ることができるとのこと。<br><br><a href='https://www.youtube.com/live/WgnLXw_cb2o?si=MNrnFfgDnzRhAue2' target='_blank'>🔗 詳細を開く</a>",
        "category": "legacy",
        "isStore": false,
        "isKomyaku": false,
        "link": "https://www.youtube.com/live/WgnLXw_cb2o?si=MNrnFfgDnzRhAue2",
        "image_url": "https://i.ytimg.com/vi/WgnLXw_cb2o/maxresdefault.jpg?v=6a23880e"
      },
      "geometry": {
        "type": "Point",
        "coordinates": [
          135.3868918,
          34.65041226
        ]
      }
    },
    {
      "type": "Feature",
      "properties": {
        "name": "DotHealth OSAKA　大阪駅：中央コンコース",
        "popupContent": "<b style='color:#2e7d32;'>【公開中】</b><br><b>【DotHealth OSAKA　大阪駅：中央コンコース】</b><br>📅 期間: 常設 / 時期----<br>📝 DotHealthは、これまで特別な場所でしか触れにくかったヘルスケアとの接点を、駅ナカなど毎日の動線上につくるプロジェクト。数分で肌年齢や内臓脂肪、脳健康度などを含む健康データを測定でき、自分のカラダの状態を日常の中で記録していくことができます。<br><br><a href='https://dot-health.net/' target='_blank'>🔗 詳細を開く</a>",
        "category": "legacy",
        "isStore": false,
        "isKomyaku": false,
        "link": "https://dot-health.net/",
        "image_url": "https://dot-health.net/ogp.png"
      },
      "geometry": {
        "type": "Point",
        "coordinates": [
          135.4959432,
          34.70252875
        ]
      }
    },
    {
      "type": "Feature",
      "properties": {
        "name": "DotHealth OSAKA　天王寺駅：阪和線こ線橋 1・2番線階段付近（改札内）",
        "popupContent": "<b style='color:#2e7d32;'>【公開中】</b><br><b>【DotHealth OSAKA　天王寺駅：阪和線こ線橋 1・2番線階段付近（改札内）】</b><br>📅 期間: 常設 / 時期----<br>📝 DotHealthは、これまで特別な場所でしか触れにくかったヘルスケアとの接点を、駅ナカなど毎日の動線上につくるプロジェクト。数分で肌年齢や内臓脂肪、脳健康度などを含む健康データを測定でき、自分のカラダの状態を日常の中で記録していくことができます。<br><br><a href='https://dot-health.net/' target='_blank'>🔗 詳細を開く</a>",
        "category": "legacy",
        "isStore": false,
        "isKomyaku": false,
        "link": "https://dot-health.net/",
        "image_url": "https://dot-health.net/ogp.png"
      },
      "geometry": {
        "type": "Point",
        "coordinates": [
          135.5138805,
          34.64738436
        ]
      }
    },
    {
      "type": "Feature",
      "properties": {
        "name": "DotHealth OSAKA　岸辺駅：改札口外",
        "popupContent": "<b style='color:#2e7d32;'>【公開中】</b><br><b>【DotHealth OSAKA　岸辺駅：改札口外】</b><br>📅 期間: 常設 / 時期----<br>📝 DotHealthは、これまで特別な場所でしか触れにくかったヘルスケアとの接点を、駅ナカなど毎日の動線上につくるプロジェクト。数分で肌年齢や内臓脂肪、脳健康度などを含む健康データを測定でき、自分のカラダの状態を日常の中で記録していくことができます。<br><br><a href='https://dot-health.net/' target='_blank'>🔗 詳細を開く</a>",
        "category": "legacy",
        "isStore": false,
        "isKomyaku": false,
        "link": "https://dot-health.net/",
        "image_url": "https://dot-health.net/ogp.png"
      },
      "geometry": {
        "type": "Point",
        "coordinates": [
          135.5416035,
          34.77724916
        ]
      }
    },
    {
      "type": "Feature",
      "properties": {
        "name": "DotHealth OSAKA日本橋室町三井タワー地下1階",
        "popupContent": "<b style='color:#2e7d32;'>【公開中】</b><br><b>【DotHealth OSAKA日本橋室町三井タワー地下1階】</b><br>📅 期間: 常設 / 時期----<br>📝 DotHealthは、これまで特別な場所でしか触れにくかったヘルスケアとの接点を、駅ナカなど毎日の動線上につくるプロジェクト。数分で肌年齢や内臓脂肪、脳健康度などを含む健康データを測定でき、自分のカラダの状態を日常の中で記録していくことができます。<br><br><a href='https://dot-health.net/' target='_blank'>🔗 詳細を開く</a>",
        "category": "legacy",
        "isStore": false,
        "isKomyaku": false,
        "link": "https://dot-health.net/",
        "image_url": "https://dot-health.net/ogp.png"
      },
      "geometry": {
        "type": "Point",
        "coordinates": [
          139.7725723,
          35.68781345
        ]
      }
    },
    {
      "type": "Feature",
      "properties": {
        "name": "大屋根リングが駅のベンチに！　阪神伝法駅",
        "popupContent": "<b style='color:#2e7d32;'>【公開中】</b><br><b>【大屋根リングが駅のベンチに！　阪神伝法駅】</b><br>📅 期間: 2026/06/09 ～ 常設<br>📝 大阪・関西万博会場のシンボル「大屋根リング」の柱材が、阪神なんば線の伝法駅・福駅で駅の待合ベンチとして活用されることになりました。<br><br><a href='https://prtimes.jp/main/html/rd/p/000003632.000005180.html' target='_blank'>🔗 詳細を開く</a>",
        "category": "legacy",
        "isStore": false,
        "isKomyaku": false,
        "link": "https://prtimes.jp/main/html/rd/p/000003632.000005180.html",
        "image_url": "https://prcdn.freetls.fastly.net/release_image/5180/3632/5180-3632-6ff015c5dfd75aa3e319e73777ac058a-559x376.jpg?format=jpeg&auto=webp&fit=bounds&width=2400&height=1260"
      },
      "geometry": {
        "type": "Point",
        "coordinates": [
          135.4516973,
          34.68921489
        ]
      }
    },
    {
      "type": "Feature",
      "properties": {
        "name": "大屋根リングが駅のベンチに！　阪神福駅",
        "popupContent": "<b style='color:#2e7d32;'>【公開中】</b><br><b>【大屋根リングが駅のベンチに！　阪神福駅】</b><br>📅 期間: 2026/06/09 ～ 常設<br>📝 大阪・関西万博会場のシンボル「大屋根リング」の柱材が、阪神なんば線の伝法駅・福駅で駅の待合ベンチとして活用されることになりました。<br><br><a href='https://prtimes.jp/main/html/rd/p/000003632.000005180.html' target='_blank'>🔗 詳細を開く</a>",
        "category": "legacy",
        "isStore": false,
        "isKomyaku": false,
        "link": "https://prtimes.jp/main/html/rd/p/000003632.000005180.html",
        "image_url": "https://prcdn.freetls.fastly.net/release_image/5180/3632/5180-3632-6ff015c5dfd75aa3e319e73777ac058a-559x376.jpg?format=jpeg&auto=webp&fit=bounds&width=2400&height=1260"
      },
      "geometry": {
        "type": "Point",
        "coordinates": [
          135.4426283,
          34.70000901
        ]
      }
    },
    {
      "type": "Feature",
      "properties": {
        "name": "（予定）日本館で展示されていた「藻類キティ」が大分・HiCaLiに登場！",
        "popupContent": "<b style='color:#e67e22;'>【予定】</b><br><b>【日本館で展示されていた「藻類キティ」が大分・HiCaLiに登場！】</b><br>📅 期間: 2026/07/07 ～ 常設<br>📝 大阪・関西万博「日本館」で展示されて話題になった「藻類キティ」が、今度はハーモニーランドの地元・大分に登場します。\n\nJR暘谷駅に隣接する交流ひろばHiCaLiでは、藻類をモチーフにしたハローキティ10体が展示されるほか、全32種の藻類ハローキティ紹介パネルも並ぶとのこと。展示は7月7日から予定されています。\n\n万博で藻類キティに会えなかった人も、大分で再び出会えるチャンス。日本館の記憶が地域へ広がる、かわいくてユニークな万博レガシースポットです。<br><br><a href='https://prtimes.jp/main/html/rd/p/000000518.000007643.html' target='_blank'>🔗 詳細を開く</a>",
        "category": "legacy",
        "isStore": false,
        "isKomyaku": false,
        "link": "https://prtimes.jp/main/html/rd/p/000000518.000007643.html",
        "image_url": "https://prcdn.freetls.fastly.net/release_image/7643/518/7643-518-6436a86a50cae46e58d0101aabb3ad3b-1600x1201.jpg?format=jpeg&auto=webp&fit=bounds&width=2400&height=1260"
      },
      "geometry": {
        "type": "Point",
        "coordinates": [
          131.5319434,
          33.37077159
        ]
      }
    },
    {
      "type": "Feature",
      "properties": {
        "name": "万博で使われた給水機が姫路城へ！　菱の門前",
        "popupContent": "<b style='color:#2e7d32;'>【公開中】</b><br><b>【万博で使われた給水機が姫路城へ！　菱の門前】</b><br>📅 期間: 2026/06/10 ～ 常設<br>📝 大阪・関西万博で、来場者やスタッフの熱中症予防対策として使用された給水機が、姫路城内に設置されます。\n\n万博会場では無料給水スポットとして活用され、熱中症予防だけでなく、ペットボトルなどのプラスチックごみ削減にも貢献していた給水機。閉幕後はリユース品として販売されていたものを、大阪・関西万博のレガシーを姫路に残し、次世代へ引き継ぐ観点から購入したとのことです。<br><br><a href='https://www.city.himeji.lg.jp/shisei/0000033497.html' target='_blank'>🔗 詳細を開く</a>",
        "category": "legacy",
        "isStore": false,
        "isKomyaku": false,
        "link": "https://www.city.himeji.lg.jp/shisei/0000033497.html",
        "image_url": "https://www.city.himeji.lg.jp/design_img/og_image.png"
      },
      "geometry": {
        "type": "Point",
        "coordinates": [
          134.6924976,
          34.8386987
        ]
      }
    },
    {
      "type": "Feature",
      "properties": {
        "name": "（予定）万博で使われた給水機が姫路城へ！　備前丸",
        "popupContent": "<b style='color:#e67e22;'>【予定】</b><br><b>【万博で使われた給水機が姫路城へ！　備前丸】</b><br>📅 期間: 2026/06/30頃 ～ 常設<br>📝 大阪・関西万博で、来場者やスタッフの熱中症予防対策として使用された給水機が、姫路城内に設置されます。\n\n万博会場では無料給水スポットとして活用され、熱中症予防だけでなく、ペットボトルなどのプラスチックごみ削減にも貢献していた給水機。閉幕後はリユース品として販売されていたものを、大阪・関西万博のレガシーを姫路に残し、次世代へ引き継ぐ観点から購入したとのことです。<br><br><a href='https://www.city.himeji.lg.jp/shisei/0000033497.html' target='_blank'>🔗 詳細を開く</a>",
        "category": "legacy",
        "isStore": false,
        "isKomyaku": false,
        "link": "https://www.city.himeji.lg.jp/shisei/0000033497.html",
        "image_url": "https://www.city.himeji.lg.jp/design_img/og_image.png"
      },
      "geometry": {
        "type": "Point",
        "coordinates": [
          134.6939337,
          34.83905275
        ]
      }
    },
    {
      "type": "Feature",
      "properties": {
        "name": "あのミャクミャクソフトが、まさかのマスコット化！",
        "popupContent": "<b style='color:#2e7d32;'>【公開中】</b><br><b>【あのミャクミャクソフトが、まさかのマスコット化！】</b><br>📅 期間: 2026/06/18 ～ 2026/06/30<br>📝 「ミャクミャクソフト」が、かわいいマスコットになって登場！対象レシートを持つ人限定の受注生産で、S・M・Lの3サイズ展開。<br><br><a href='https://lapoppo.com/expo2025-oc/news/myakumyaku-soft-mascot/' target='_blank'>🔗 詳細を開く</a>",
        "category": "legacy",
        "isStore": true,
        "isKomyaku": false,
        "link": "https://lapoppo.com/expo2025-oc/news/myakumyaku-soft-mascot/",
        "image_url": ""
      },
      "geometry": {
        "type": "Point",
        "coordinates": [
          135.4973354,
          34.7050294
        ]
      }
    },
    {
      "type": "Feature",
      "properties": {
        "name": "（予定）「あの靴」履いて集まろう！ミズノの万博シューズ購入者限定オフ会が開催！",
        "popupContent": "<b style='color:#e67e22;'>【予定】</b><br><b>【「あの靴」履いて集まろう！ミズノの万博シューズ購入者限定オフ会が開催！】</b><br>📅 期間: 2026/08/22 ～ 2026/08/22<br>📝 ミズノと大阪・関西万博がコラボした「THE MIZUNO ENERZY OSAKA EXPO 2025シューズ」の購入者を対象に、アフター万博の特別イベントが開催されます。抽選で200名が招待される購入者限定オフ会で、開催日は2026年8月22日。時間は13:00〜16:00、受付開始は12:30予定とのこと。会場は大阪市内某所、詳細は当選連絡にて通知されるとのこと！（マップ上のピンは大阪ミズノ株式会社）<br><br><a href='https://jpn.mizuno.com/dicontents/osaka_expo2025/after_event?utm_source=twitter&utm_medium=social&utm_campaign=sndilhwk_afterexpo&utm_content=260617' target='_blank'>🔗 詳細を開く</a>",
        "category": "legacy",
        "isStore": false,
        "isKomyaku": false,
        "link": "https://jpn.mizuno.com/dicontents/osaka_expo2025/after_event?utm_source=twitter&utm_medium=social&utm_campaign=sndilhwk_afterexpo&utm_content=260617",
        "image_url": "https://jpn.mizuno.com/sites/default/files/2022-02/MRB400_400.jpg"
      },
      "geometry": {
        "type": "Point",
        "coordinates": [
          135.4170097,
          34.63857655
        ]
      }
    },
    {
      "type": "Feature",
      "properties": {
        "name": "（予定）りそな銀行主催の万博レガシーイベントがATCホールで開催！",
        "popupContent": "<b style='color:#e67e22;'>【予定】</b><br><b>【りそな銀行主催の万博レガシーイベントがATCホールで開催！】</b><br>📅 期間: 2026/08/21 ～ 2026/08/23<br>📝 大阪・関西万博で生まれた感動を“過去の思い出”で終わらせず、未来の日常へつなげる万博レガシーイベントが、大阪南港ATCホールで開催されます。\r<br><br><a href='https://www.resona-expo.com/' target='_blank'>🔗 詳細を開く</a>",
        "category": "legacy",
        "isStore": false,
        "isKomyaku": false,
        "link": "https://www.resona-expo.com/",
        "image_url": "https://www.resona-expo.com/wpsys/wp-content/uploads/2026/06/ogp.jpg"
      },
      "geometry": {
        "type": "Point",
        "coordinates": [
          135.4145372,
          34.63618702
        ]
      }
    },
    {
      "type": "Feature",
      "properties": {
        "name": "万博で使われた「マイボトル洗浄機」がイオンモール京都桂川へ！",
        "popupContent": "<b style='color:#2e7d32;'>【公開中】</b><br><b>【万博で使われた「マイボトル洗浄機」がイオンモール京都桂川へ！】</b><br>📅 期間: 常設 / 時期----<br>📝 大阪・関西万博の会場に設置されていた象印の「マイボトル洗浄機」が、イオンモール京都桂川へ移設されました。万博会場では、マイボトルを快適に使うための設備として活躍し、会期中の総洗浄回数は158,488回、総CO2削減量は約12,837kgにのぼったとのこと。外出先でボトルを洗えることで、マイボトル利用を後押しし、プラスチックごみ削減にもつながる取り組みです。<br><br><a href='https://prtimes.jp/main/html/rd/p/000000282.000006490.html' target='_blank'>🔗 詳細を開く</a>",
        "category": "legacy",
        "isStore": false,
        "isKomyaku": false,
        "link": "https://prtimes.jp/main/html/rd/p/000000282.000006490.html",
        "image_url": "https://prcdn.freetls.fastly.net/release_image/6490/282/6490-282-7504f65be112099d5dc6f0d8affac83a-3900x2919.jpg?format=jpeg&auto=webp&fit=bounds&width=2400&height=1260"
      },
      "geometry": {
        "type": "Point",
        "coordinates": [
          135.7083058,
          34.9635261
        ]
      }
    },
    {
      "type": "Feature",
      "properties": {
        "name": "（予定）広島コンベンションホール1階 広島テレビホール＆エントランスホール　大阪・関西万博の1周年メモリアルイベントTour「EXPO2025 Futures Tour」の開催が決定しました！",
        "popupContent": "<b style='color:#e67e22;'>【予定】</b><br><b>【広島コンベンションホール1階 広島テレビホール＆エントランスホール　大阪・関西万博の1周年メモリアルイベントTour「EXPO2025 Futures Tour」の開催が決定しました！】</b><br>📅 期間: 2026/07/11 ～ 2026/07/12<br>📝 万博で生まれた感動や未来へのワクワクを、閉幕後も全国各地へつないでいくアフター万博イベントです。大阪・関西万博に行った人も、行けなかった人も、各地で“もう一度万博”を感じられる機会になりそうです。<br><br><a href='https://www.expo2025.or.jp/news/news-20260619-03/' target='_blank'>🔗 詳細を開く</a>",
        "category": "legacy",
        "isStore": false,
        "isKomyaku": false,
        "link": "https://www.expo2025.or.jp/news/news-20260619-03/",
        "image_url": "https://www.expo2025.or.jp/wp/wp-content/uploads/key.jpg"
      },
      "geometry": {
        "type": "Point",
        "coordinates": [
          132.4756467,
          34.40025371
        ]
      }
    },
    {
      "type": "Feature",
      "properties": {
        "name": "（予定）高松シンボルタワー ホール棟1階展示場　大阪・関西万博の1周年メモリアルイベントTour「EXPO2025 Futures Tour」の開催が決定しました！",
        "popupContent": "<b style='color:#e67e22;'>【予定】</b><br><b>【高松シンボルタワー ホール棟1階展示場　大阪・関西万博の1周年メモリアルイベントTour「EXPO2025 Futures Tour」の開催が決定しました！】</b><br>📅 期間: 2026/07/25 ～ 2026/07/26<br>📝 万博で生まれた感動や未来へのワクワクを、閉幕後も全国各地へつないでいくアフター万博イベントです。大阪・関西万博に行った人も、行けなかった人も、各地で“もう一度万博”を感じられる機会になりそうです。<br><br><a href='https://www.expo2025.or.jp/news/news-20260619-03/' target='_blank'>🔗 詳細を開く</a>",
        "category": "legacy",
        "isStore": false,
        "isKomyaku": false,
        "link": "https://www.expo2025.or.jp/news/news-20260619-03/",
        "image_url": "https://www.expo2025.or.jp/wp/wp-content/uploads/key.jpg"
      },
      "geometry": {
        "type": "Point",
        "coordinates": [
          134.0470507,
          34.3525382
        ]
      }
    },
    {
      "type": "Feature",
      "properties": {
        "name": "（予定）CoCoLo新潟1階 吹き抜け広場「ガタリウム」　大阪・関西万博の1周年メモリアルイベントTour「EXPO2025 Futures Tour」の開催が決定しました！",
        "popupContent": "<b style='color:#e67e22;'>【予定】</b><br><b>【CoCoLo新潟1階 吹き抜け広場「ガタリウム」　大阪・関西万博の1周年メモリアルイベントTour「EXPO2025 Futures Tour」の開催が決定しました！】</b><br>📅 期間: 2026/08/08 ～ 2026/08/09<br>📝 万博で生まれた感動や未来へのワクワクを、閉幕後も全国各地へつないでいくアフター万博イベントです。大阪・関西万博に行った人も、行けなかった人も、各地で“もう一度万博”を感じられる機会になりそうです。<br><br><a href='https://www.expo2025.or.jp/news/news-20260619-03/' target='_blank'>🔗 詳細を開く</a>",
        "category": "legacy",
        "isStore": false,
        "isKomyaku": false,
        "link": "https://www.expo2025.or.jp/news/news-20260619-03/",
        "image_url": "https://www.expo2025.or.jp/wp/wp-content/uploads/key.jpg"
      },
      "geometry": {
        "type": "Point",
        "coordinates": [
          139.0614522,
          37.9124891
        ]
      }
    },
    {
      "type": "Feature",
      "properties": {
        "name": "（予定）金沢フォーラス メインエントランスコート　大阪・関西万博の1周年メモリアルイベントTour「EXPO2025 Futures Tour」の開催が決定しました！",
        "popupContent": "<b style='color:#e67e22;'>【予定】</b><br><b>【金沢フォーラス メインエントランスコート　大阪・関西万博の1周年メモリアルイベントTour「EXPO2025 Futures Tour」の開催が決定しました！】</b><br>📅 期間: 2026/08/29 ～ 2026/08/30<br>📝 万博で生まれた感動や未来へのワクワクを、閉幕後も全国各地へつないでいくアフター万博イベントです。大阪・関西万博に行った人も、行けなかった人も、各地で“もう一度万博”を感じられる機会になりそうです。<br><br><a href='https://www.expo2025.or.jp/news/news-20260619-03/' target='_blank'>🔗 詳細を開く</a>",
        "category": "legacy",
        "isStore": false,
        "isKomyaku": false,
        "link": "https://www.expo2025.or.jp/news/news-20260619-03/",
        "image_url": "https://www.expo2025.or.jp/wp/wp-content/uploads/key.jpg"
      },
      "geometry": {
        "type": "Point",
        "coordinates": [
          136.649883,
          36.57928612
        ]
      }
    },
    {
      "type": "Feature",
      "properties": {
        "name": "（予定）ＫＩＴＴＥ名古屋1階 アトリウム　大阪・関西万博の1周年メモリアルイベントTour「EXPO2025 Futures Tour」の開催が決定しました！",
        "popupContent": "<b style='color:#e67e22;'>【予定】</b><br><b>【ＫＩＴＴＥ名古屋1階 アトリウム　大阪・関西万博の1周年メモリアルイベントTour「EXPO2025 Futures Tour」の開催が決定しました！】</b><br>📅 期間: 2026/09/12 ～ 2026/09/13<br>📝 万博で生まれた感動や未来へのワクワクを、閉幕後も全国各地へつないでいくアフター万博イベントです。大阪・関西万博に行った人も、行けなかった人も、各地で“もう一度万博”を感じられる機会になりそうです。<br><br><a href='https://www.expo2025.or.jp/news/news-20260619-03/' target='_blank'>🔗 詳細を開く</a>",
        "category": "legacy",
        "isStore": false,
        "isKomyaku": false,
        "link": "https://www.expo2025.or.jp/news/news-20260619-03/",
        "image_url": "https://www.expo2025.or.jp/wp/wp-content/uploads/key.jpg"
      },
      "geometry": {
        "type": "Point",
        "coordinates": [
          136.8823241,
          35.1732804
        ]
      }
    },
    {
      "type": "Feature",
      "properties": {
        "name": "（予定）麻布台ヒルズアリーナ　大阪・関西万博の1周年メモリアルイベントTour「EXPO2025 Futures Tour」の開催が決定しました！",
        "popupContent": "<b style='color:#e67e22;'>【予定】</b><br><b>【麻布台ヒルズアリーナ　大阪・関西万博の1周年メモリアルイベントTour「EXPO2025 Futures Tour」の開催が決定しました！】</b><br>📅 期間: 2026/10/10 ～ 2026/10/11<br>📝 万博で生まれた感動や未来へのワクワクを、閉幕後も全国各地へつないでいくアフター万博イベントです。大阪・関西万博に行った人も、行けなかった人も、各地で“もう一度万博”を感じられる機会になりそうです。<br><br><a href='https://www.expo2025.or.jp/news/news-20260619-03/' target='_blank'>🔗 詳細を開く</a>",
        "category": "legacy",
        "isStore": false,
        "isKomyaku": false,
        "link": "https://www.expo2025.or.jp/news/news-20260619-03/",
        "image_url": "https://www.expo2025.or.jp/wp/wp-content/uploads/key.jpg"
      },
      "geometry": {
        "type": "Point",
        "coordinates": [
          139.7406442,
          35.66156434
        ]
      }
    },
    {
      "type": "Feature",
      "properties": {
        "name": "（予定）EXPO2025公式ポップアップストアがラゾーナ川崎に期間限定OPEN！",
        "popupContent": "<b style='color:#e67e22;'>【予定】</b><br><b>【EXPO2025公式ポップアップストアがラゾーナ川崎に期間限定OPEN！】</b><br>📅 期間: 2026/06/26 ～ 2026/07/22<br>📝 EXPO2025オフィシャルポップアップストアが、丸善ラゾーナ川崎店内に期間限定でオープンします。\n会場では、ミャクミャク関連グッズの販売に加え、開催期間中に「ミャクミャクぬいぐるみくじ ブラックVer.」も実施予定とのこと！<br><br><a href='https://myakumyakuhouse.jp/topics/detail/342/' target='_blank'>🔗 詳細を開く</a>",
        "category": "legacy",
        "isStore": true,
        "isKomyaku": false,
        "link": "https://myakumyakuhouse.jp/topics/detail/342/",
        "image_url": "https://myakumyakuhouse.jp/assets/images/ogp.png"
      },
      "geometry": {
        "type": "Point",
        "coordinates": [
          139.6960859,
          35.53307844
        ]
      }
    },
    {
      "type": "Feature",
      "properties": {
        "name": "（予定）ウラマヨ！で「大阪・関西万博で盛り上がっていたアレ大丈夫ですかSP」放送！",
        "popupContent": "<b style='color:#e67e22;'>【予定】</b><br><b>【ウラマヨ！で「大阪・関西万博で盛り上がっていたアレ大丈夫ですかSP」放送！】</b><br>📅 期間: 2026/06/27 ～ 2026/06/27<br>📝 スタジオにミャクミャクが出演！関西で食べられる万博グルメも紹介されるようです。<br><br><a href='https://www.ktv.jp/uramayo/' target='_blank'>🔗 詳細を開く</a>",
        "category": "legacy",
        "isStore": false,
        "isKomyaku": false,
        "link": "https://www.ktv.jp/uramayo/",
        "image_url": "https://www.ktv.jp/uramayo/wp-content/uploads/sites/17/2020/09/main_1.jpg"
      },
      "geometry": {
        "type": "Point",
        "coordinates": [
          135.5102247,
          34.70494229
        ]
      }
    },
    {
      "type": "Feature",
      "properties": {
        "name": "（予定）大屋根リングの木材が関西大学へ！新学生会館のエントランスに万博レガシーを継承！",
        "popupContent": "<b style='color:#e67e22;'>【予定】</b><br><b>【大屋根リングの木材が関西大学へ！新学生会館のエントランスに万博レガシーを継承！】</b><br>📅 期間: 2029年3月予定 ～ 常設<br>📝 大阪・関西万博のシンボル「大屋根リング」で使用された木材を活用し、その一部を再現したエントランス空間を整備予定とのこと。大屋根リングに込められた「多様でありながら、ひとつ」という理念や記憶が、学生たちの日常空間へ受け継がれていきます。新たな学生会館は地上11階、高さ約45m、延床面積約22,000㎡。トレーニングジム、共通講義空間、音楽・スポーツ活動機能、部室・活動拠点などを備え、学生同士の出会いや交流、新たな挑戦を生み出すキャンパス・コアを目指すとのことです。<br><br><a href='https://prtimes.jp/main/html/rd/p/000000292.000013058.html' target='_blank'>🔗 詳細を開く</a>",
        "category": "legacy",
        "isStore": false,
        "isKomyaku": false,
        "link": "https://prtimes.jp/main/html/rd/p/000000292.000013058.html",
        "image_url": "https://prcdn.freetls.fastly.net/release_image/13058/292/13058-292-e7de966c0383276f4782fbeb4a64f939-916x832.png?format=jpeg&auto=webp&fit=bounds&width=2400&height=1260"
      },
      "geometry": {
        "type": "Point",
        "coordinates": [
          135.5117465,
          34.77539548
        ]
      }
    },
    {
      "type": "Feature",
      "properties": {
        "name": "待機場所はJR側❺入口より！　太陽ノ塔洋菓子店の「めっちゃマイドオオキニ缶」が、阪神梅田本店B1Fで期間限定販売",
        "popupContent": "<b style='color:#2e7d32;'>【公開中】</b><br><b>【待機場所はJR側❺入口より！　太陽ノ塔洋菓子店の「めっちゃマイドオオキニ缶」が、阪神梅田本店B1Fで期間限定販売】</b><br>📅 期間: 2026/06/24 ～ 2026/06/30<br>📝 販売数は各日500缶予定で、おひとり様3缶まで購入可能とのことです。販売期間中は、毎朝その日の販売分の購入引換券を配布予定。購入希望者の待機場所は「JR側❺入口」となっており、通常の待機場所とは異なるため注意が必要です。購入引換券は並んだ順に配布され、希望購入数分の引換券を受け取る形になります。引換券を取得した場合は、取得日当日の19:30までであれば、好きな時間に売り場で受け取り可能とのこと。なお、引換券がなくなり次第、その日の販売分は完売となります。<br><br><a href='https://www.instagram.com/p/DZuI9nkj0EG/?img_index=1' target='_blank'>🔗 詳細を開く</a>",
        "category": "legacy",
        "isStore": true,
        "isKomyaku": false,
        "link": "https://www.instagram.com/p/DZuI9nkj0EG/?img_index=1",
        "image_url": "https://scontent-lhr6-2.cdninstagram.com/v/t51.82787-15/725860407_18590568658032420_8860855189953546567_n.jpg?stp=c655.0.1966.1966a_dst-jpg_e35_s640x640_tt6&_nc_cat=107&ccb=7-5&_nc_sid=18de74&efg=eyJlZmdfdGFnIjoiQ0FST1VTRUxfSVRFTS5iZXN0X2ltYWdlX3VybGdlbi5DMyJ9&_nc_ohc=yCwtWy5k3v8Q7kNvwFYzauJ&_nc_oc=AdodTxGTYVWvHIL8-mOjxJb1g1B-Z-SdawS320gmaQHaKm1YsQlQmVelV4QriHKqSvk&_nc_zt=23&_nc_ht=scontent-lhr6-2.cdninstagram.com&_nc_gid=N28RW14O6IEADQGB6PPEZw&_nc_ss=7f60f&oh=00_Af91m2ZTi2bKErS4AZN2gR-gm5NHTWDbX9v0k4MZOIlxwA&oe=6A415A92"
      },
      "geometry": {
        "type": "Point",
        "coordinates": [
          135.4975414,
          34.70101766
        ]
      }
    },
    {
      "type": "Feature",
      "properties": {
        "name": "（予定）うめきた公園に50カ国以上が集結！アフター万博イベント「麦食音祭 GG」開催！",
        "popupContent": "<b style='color:#e67e22;'>【予定】</b><br><b>【うめきた公園に50カ国以上が集結！アフター万博イベント「麦食音祭 GG」開催！】</b><br>📅 期間: 2026/07/10 ～ 2026/07/12<br>📝 大阪・関西万博をきっかけに生まれた国際的なつながりを継承するイベント「麦食音祭 GG」が、7月10日（金）〜12日（日）にグラングリーン大阪・うめきた公園で開催されます。<br><br><a href='https://umeda.keizai.biz/headline/4625/' target='_blank'>🔗 詳細を開く</a>",
        "category": "legacy",
        "isStore": true,
        "isKomyaku": false,
        "link": "https://umeda.keizai.biz/headline/4625/",
        "image_url": "https://images.keizai.biz/umeda_keizai/headline/1782204479_photo.jpg"
      },
      "geometry": {
        "type": "Point",
        "coordinates": [
          135.4926336,
          34.703847
        ]
      }
    },
    {
      "type": "Feature",
      "properties": {
        "name": "SENNAN LONG PARKにミャクミャクモニュメント フォトハウスが登場！",
        "popupContent": "<b style='color:#2e7d32;'>【公開中】</b><br><b>【SENNAN LONG PARKにミャクミャクモニュメント フォトハウスが登場！】</b><br>📅 期間: 2026/06/06 ～ 2026/08/31<br>📝 ミャクミャクモニュメント フォトハウスはミャクミャクのぬいぐるみやグッズ、万博のレガシーを感じられる貴重なアイテムを展示。開催期間は2026年6月6日（土）〜8月31日（月）で、土日祝のみOPEN。時間は10:00〜17:00予定で、入場無料です。<br><br><a href='https://sennanlongpark.com/?xo_event=%E5%A4%A7%E9%98%AA%E3%82%92%E3%82%81%E3%81%90%E3%82%8B-%E3%83%9F%E3%83%A3%E3%82%AF%E3%83%9F%E3%83%A3%E3%82%AF%E3%83%A2%E3%83%8B%E3%83%A5%E3%83%A1%E3%83%B3%E3%83%88-%E3%83%95%E3%82%A9%E3%83%88%E3%83%8F' target='_blank'>🔗 詳細を開く</a>",
        "category": "legacy",
        "isStore": false,
        "isKomyaku": false,
        "link": "https://sennanlongpark.com/?xo_event=%E5%A4%A7%E9%98%AA%E3%82%92%E3%82%81%E3%81%90%E3%82%8B-%E3%83%9F%E3%83%A3%E3%82%AF%E3%83%9F%E3%83%A3%E3%82%AF%E3%83%A2%E3%83%8B%E3%83%A5%E3%83%A1%E3%83%B3%E3%83%88-%E3%83%95%E3%82%A9%E3%83%88%E3%83%8F",
        "image_url": ""
      },
      "geometry": {
        "type": "Point",
        "coordinates": [
          135.2633683,
          34.37980149
        ]
      }
    }
  ]
}