{
  "type": "FeatureCollection",
  "approval_status": "OK",
  "features": [
    {
      "type": "Feature",
      "properties": {
        "category": "local",
        "trend_word": "平和と幸せ祈願　奈良県安堵町の極楽寺　30年ぶり再建「不動堂」で落慶法要(奈良新聞デジタル)",
        "name": "極楽寺",
        "address": "",
        "reason": "30年ぶりの落慶法要という特別な機会と、祈願の場としての魅力",
        "date": "2026-06-08",
        "link": "https://news.yahoo.co.jp/articles/335c9e37b1dc701200d265b99fe07f54e8188667?source=rss",
        "image_url": "https://newsatcl-pctr.c.yimg.jp/t/amd-img/20260608-00000001-naranp-000-1-view.jpg?exp=10800"
      },
      "geometry": {
        "type": "Point",
        "coordinates": [
          135.75813933,
          34.60370189
        ]
      }
    },
    {
      "type": "Feature",
      "properties": {
        "category": "local",
        "trend_word": "【特集】「月面でサツマイモは作れるのか」プロジェクト　鳥取大学農学部でこの春からスタート　鳥取砂丘の砂を使った実験や重力が弱い中でもツルや根が生育するのか検証　宇宙への挑戦が始まる　鳥取県(日本海テレビ)",
        "name": "鳥取大学　農学部",
        "address": "",
        "reason": "宇宙食への期待とユニークな実験内容が興味を引くため",
        "date": "2026-06-07",
        "link": "https://news.yahoo.co.jp/articles/d0518e311655b954046e32835a49c48bd5ed60e5?source=rss",
        "image_url": "https://newsatcl-pctr.c.yimg.jp/t/amd-img/20260607-08236112-nkt-000-1-view.jpg?exp=10800"
      },
      "geometry": {
        "type": "Point",
        "coordinates": [
          134.1743575,
          35.516362222222
        ]
      }
    },
    {
      "type": "Feature",
      "properties": {
        "category": "local",
        "trend_word": "【桜坂劇場・下地久美子の映画コレ見た？】『スカーフェイス　4K　日本最終上映』飽くなき欲望　男の末路(沖縄タイムス)",
        "name": "桜坂劇場",
        "address": "",
        "reason": "沖縄で「スカーフェイス 4K 日本最終上映」を体験できる貴重な機会であり、映画ファンならずとも興味を引く内容だから。",
        "date": "2026-06-07",
        "link": "https://news.yahoo.co.jp/articles/8530cb907e83b841a758392874253809a3fc1220?source=rss",
        "image_url": "https://newsatcl-pctr.c.yimg.jp/t/amd-img/20260607-01852343-okinawat-000-1-view.jpg?exp=10800"
      },
      "geometry": {
        "type": "Point",
        "coordinates": [
          127.6901384,
          26.2147706
        ]
      }
    },
    {
      "type": "Feature",
      "properties": {
        "category": "local",
        "trend_word": "色とキャラで街に彩り　富山市総曲輪の飲食店外装、漫画家の森さんがアート制作(北日本新聞)",
        "name": "レストラン清風",
        "address": "",
        "reason": "漫画家の手による彩り豊かなアートが街の魅力を高めているため",
        "date": "2026-06-03",
        "link": "https://news.yahoo.co.jp/articles/8c601bd8b4b8d067387ad8c2d581220239f632d7?source=rss",
        "image_url": "https://newsatcl-pctr.c.yimg.jp/t/amd-img/20260603-00000001-kitanihon-000-1-view.jpg?exp=10800"
      },
      "geometry": {
        "type": "Point",
        "coordinates": [
          137.21238536,
          36.69548456
        ]
      }
    },
    {
      "type": "Feature",
      "properties": {
        "category": "local",
        "trend_word": "再び聖なる音色響かせる…シンボルのパイプオルガン、大規模修繕が完了（宮城・加美町『中新田バッハホール』）(ミヤギテレビ)",
        "name": "加美町役場　中新田バッハホール",
        "address": "",
        "reason": "歴史的建造物の修繕完了と美しい音色への期待感",
        "date": "2026-06-02",
        "link": "https://news.yahoo.co.jp/articles/2d4513fc9b88047317e392d67aca101d4b59f537?source=rss",
        "image_url": "https://newsatcl-pctr.c.yimg.jp/t/amd-img/20260602-09792173-mmt-000-1-view.jpg?exp=10800"
      },
      "geometry": {
        "type": "Point",
        "coordinates": [
          140.866033055556,
          38.568418055556
        ]
      }
    },
    {
      "type": "Feature",
      "properties": {
        "category": "local",
        "trend_word": "イトマキヒトデ人気投票　魚津水族館、富山湾の６匹が参加(北日本新聞)",
        "name": "魚津水族館前交差点",
        "address": "",
        "reason": "珍しい生き物の人気投票というユニークな企画で興味を引く",
        "date": "2026-06-02",
        "link": "https://news.yahoo.co.jp/articles/3e9166f4a85ba97724826093b7b17539d75f4404?source=rss",
        "image_url": "https://newsatcl-pctr.c.yimg.jp/t/amd-img/20260602-00000002-kitanihon-000-1-view.jpg?exp=10800"
      },
      "geometry": {
        "type": "Point",
        "coordinates": [
          137.387595,
          36.7993589
        ]
      }
    },
    {
      "type": "Feature",
      "properties": {
        "category": "local",
        "trend_word": "大自然の中で心身整え　八戸・種差で今季初の朝ヨガ(デーリー東北新聞社)",
        "name": "種差海岸",
        "address": "",
        "reason": "自然豊かな環境でリフレッシュできる",
        "date": "2026-05-31",
        "link": "https://news.yahoo.co.jp/articles/e99ff1ca9a89ffbfaee7805dcae1f964aed64ec9?source=rss",
        "image_url": "https://newsatcl-pctr.c.yimg.jp/t/amd-img/20260531-00010000-dtohoku-000-1-view.jpg?exp=10800"
      },
      "geometry": {
        "type": "Point",
        "coordinates": [
          141.6083805,
          40.5087805
        ]
      }
    },
    {
      "type": "Feature",
      "properties": {
        "category": "local",
        "trend_word": "那古の町に行灯であかりを　地域活性化へプロジェクト　芝浦工大の学生ら　館山（千葉県）(房日新聞)",
        "name": "館山市立 那古学童クラブ",
        "address": "",
        "reason": "歴史ある町並みと学生の創造性が融合した温かい光",
        "date": "2026-05-31",
        "link": "https://news.yahoo.co.jp/articles/f81c7894dc67024992ce04b256631ff9d0c856ed?source=rss",
        "image_url": "https://newsatcl-pctr.c.yimg.jp/t/amd-img/20260531-00010001-bonichi-000-1-view.jpg?exp=10800"
      },
      "geometry": {
        "type": "Point",
        "coordinates": [
          139.86851299,
          35.02632107
        ]
      }
    },
    {
      "type": "Feature",
      "properties": {
        "category": "local",
        "trend_word": "【桜坂劇場・下地久美子の映画コレ見た？】『カーンターラ　神の降臨』すさまじい神事の描写(沖縄タイムス)",
        "name": "桜坂劇場",
        "address": "",
        "reason": "神事の描写に興味をそそられたため",
        "date": "2026-05-31",
        "link": "https://news.yahoo.co.jp/articles/e3db7645c0e589e6c71c1b739745e30892cf2621?source=rss",
        "image_url": "https://newsatcl-pctr.c.yimg.jp/t/amd-img/20260531-01847041-okinawat-000-1-view.jpg?exp=10800"
      },
      "geometry": {
        "type": "Point",
        "coordinates": [
          127.6901384,
          26.2147706
        ]
      }
    },
    {
      "type": "Feature",
      "properties": {
        "category": "local",
        "trend_word": "【特集】創業160年の伝統を誇る酒造会社「千代むすび酒造」　長い歴史の中で培ってきた酒づくりの技と感性を生かしたジャパニーズ・ウイスキー　伝統を守りながら次の時代へと挑戦　鳥取県境港市(日本海テレビ)",
        "name": "千代むすび酒造株式会社",
        "address": "",
        "reason": "160年の伝統と革新的なジャパニーズ・ウイスキー造りに興味をそそられるため",
        "date": "2026-05-31",
        "link": "https://news.yahoo.co.jp/articles/ebe8ed1ddc09a066ce1df648df340752e7283daf?source=rss",
        "image_url": "https://newsatcl-pctr.c.yimg.jp/t/amd-img/20260531-05143377-nkt-000-1-view.jpg?exp=10800"
      },
      "geometry": {
        "type": "Point",
        "coordinates": [
          133.22484151,
          35.54506292
        ]
      }
    },
    {
      "type": "Feature",
      "properties": {
        "category": "local",
        "trend_word": "舞浜のディズニーが、映画「トイ・ストーリー5」のグッズを期間限定で(みんなの経済新聞ネットワーク)",
        "name": "東京ディズニーリゾート・トイ・ストーリーホテル",
        "address": "",
        "reason": "「トイ・ストーリー5」の限定グッズに興味を惹かれるため",
        "date": "2026-05-31",
        "link": "https://news.yahoo.co.jp/articles/854a8bd50bbe3261bd743d468b0c111ccab9aeb5?source=rss",
        "image_url": "https://newsatcl-pctr.c.yimg.jp/t/amd-img/20260531-00000000-minkei-000-1-view.jpg?exp=10800"
      },
      "geometry": {
        "type": "Point",
        "coordinates": [
          139.8746566,
          35.626016
        ]
      }
    },
    {
      "type": "Feature",
      "properties": {
        "category": "local",
        "trend_word": "明治42年創業「奈良ホテル」一時休館から復活！6月から営業再開へ…関西唯一のクラシックホテル(Lmaga.jp)",
        "name": "奈良ホテル",
        "address": "",
        "reason": "歴史と格式あるホテルの復活は魅力的",
        "date": "2026-05-26",
        "link": "https://news.yahoo.co.jp/articles/ce773e50b2528b95f023237d4bd6cec06d9c1db8?source=rss",
        "image_url": "https://newsatcl-pctr.c.yimg.jp/t/amd-img/20260526-01059197-lmaga-000-1-view.jpg?exp=10800"
      },
      "geometry": {
        "type": "Point",
        "coordinates": [
          135.83374049,
          34.67773575
        ]
      }
    },
    {
      "type": "Feature",
      "properties": {
        "category": "local",
        "trend_word": "ドラマ「サバ缶、宇宙へ行く」で宇宙食サバ缶の人気急上昇　福井県小浜市の製造業者、放送前の3月から注文殺到(福井新聞ＯＮＬＩＮＥ)",
        "name": "福井缶詰（株）",
        "address": "",
        "reason": "ドラマの舞台となった場所で、特産品が注目されているため",
        "date": "2026-05-26",
        "link": "https://news.yahoo.co.jp/articles/69c08b88c4ed4a2b0ca8e38bc09aa571d9c1c261?source=rss",
        "image_url": "https://newsatcl-pctr.c.yimg.jp/t/amd-img/20260526-00010000-fukui-000-1-view.jpg?exp=10800"
      },
      "geometry": {
        "type": "Point",
        "coordinates": [
          135.73866575462554,
          35.50031950375085
        ]
      }
    },
    {
      "type": "Feature",
      "properties": {
        "category": "local",
        "trend_word": "初夏の訪れを告げるバラが見頃　　三重・津市(中京テレビＮＥＷＳ)",
        "name": "レッドヒルヒーサーの森",
        "address": "",
        "reason": "初夏の訪れを感じさせる美しいバラを堪能できる",
        "date": "2026-05-25",
        "link": "https://news.yahoo.co.jp/articles/972913a184fc338059d5405583b48923a8a24771?source=rss",
        "image_url": "https://newsatcl-pctr.c.yimg.jp/t/amd-img/20260525-02791283-sp_ctv-000-1-thumb.jpg?exp=10800"
      },
      "geometry": {
        "type": "Point",
        "coordinates": [
          136.46178325092512,
          34.8025843844486
        ]
      }
    },
    {
      "type": "Feature",
      "properties": {
        "category": "local",
        "trend_word": "温泉・サウナ・仕事まで…“大人がこもれる”新スパ、大阪に誕生　サウナ3種に岩盤浴、緑あふれるラウンジも(Lmaga.jp)",
        "name": "ロマスパ",
        "address": "",
        "reason": "温泉、サウナ、緑あふれるラウンジと、リラックスと仕事の両立ができる魅力的な施設だから。",
        "date": "2026-05-24",
        "link": "https://news.yahoo.co.jp/articles/3862a808bae426164b730c6c1b8c01a351f7c4de?source=rss",
        "image_url": "https://newsatcl-pctr.c.yimg.jp/t/amd-img/20260524-01058916-lmaga-000-1-view.jpg?exp=10800"
      },
      "geometry": {
        "type": "Point",
        "coordinates": [
          135.50634078,
          34.69149354
        ]
      }
    },
    {
      "type": "Feature",
      "properties": {
        "category": "local",
        "trend_word": "【桜坂劇場・下地久美子の映画コレ見た？】『霧のごとく』暗闇の時代　愛こそ希望(沖縄タイムス)",
        "name": "桜坂劇場",
        "address": "",
        "reason": "映画の舞台となった沖縄の風景を実際に体験できる",
        "date": "2026-05-24",
        "link": "https://news.yahoo.co.jp/articles/42e205b2808869cf6983eb587b4e9c7d4436c5af?source=rss",
        "image_url": "https://newsatcl-pctr.c.yimg.jp/t/amd-img/20260524-01842143-okinawat-000-1-view.jpg?exp=10800"
      },
      "geometry": {
        "type": "Point",
        "coordinates": [
          127.6901384,
          26.2147706
        ]
      }
    },
    {
      "type": "Feature",
      "properties": {
        "category": "local",
        "trend_word": "【桜坂劇場・下地久美子の映画コレ見た？】『旅立ちのラストダンス』葬儀巡る心の交流描く(沖縄タイムス)",
        "name": "桜坂劇場",
        "address": "",
        "reason": "葬儀を巡る感動的な人間ドラマに興味をそそられるため",
        "date": "2026-05-17",
        "link": "https://news.yahoo.co.jp/articles/a7893ac85f5469fbd663938d6dc2c740946d11c4?source=rss",
        "image_url": "https://newsatcl-pctr.c.yimg.jp/t/amd-img/20260517-01837112-okinawat-000-1-view.jpg?exp=10800"
      },
      "geometry": {
        "type": "Point",
        "coordinates": [
          127.6901384,
          26.2147706
        ]
      }
    },
    {
      "type": "Feature",
      "properties": {
        "category": "local",
        "trend_word": "優雅な100年前の薩摩焼ディナーセット　鹿児島県日置市の沈寿官窯に里帰り(南日本新聞)",
        "name": "沈壽官窯",
        "address": "",
        "reason": "歴史的価値のある美術品とその製造元を巡る体験",
        "date": "2026-05-12",
        "link": "https://news.yahoo.co.jp/articles/50d81fd03772f41a23b12b3b1158378a7dc1f92f?source=rss",
        "image_url": "https://newsatcl-pctr.c.yimg.jp/t/amd-img/20260512-00000003-minami-000-1-view.jpg?exp=10800"
      },
      "geometry": {
        "type": "Point",
        "coordinates": [
          130.36052205,
          31.64371543
        ]
      }
    },
    {
      "type": "Feature",
      "properties": {
        "category": "local",
        "trend_word": "「広重描いた房総巡って」　菱川師宣記念館で企画展　鋸南（千葉県）(房日新聞)",
        "name": "鋸南町役場　菱川師宣記念館",
        "address": "",
        "reason": "江戸時代の浮世絵師・歌川広重が描いた房総の風景を巡る企画展は、歴史や美術に興味のある人にとって魅力的。",
        "date": "2026-05-12",
        "link": "https://news.yahoo.co.jp/articles/3becd3c7ec4395a1aa401bf3a92086c723e87066?source=rss",
        "image_url": "https://newsatcl-pctr.c.yimg.jp/t/amd-img/20260512-00010000-bonichi-000-1-view.jpg?exp=10800"
      },
      "geometry": {
        "type": "Point",
        "coordinates": [
          139.836343888889,
          35.128198333333
        ]
      }
    },
    {
      "type": "Feature",
      "properties": {
        "category": "local",
        "trend_word": "茨城・行方市の出産祝い金　3歳まで、誕生日も支給(茨城新聞クロスアイ)",
        "name": "行方市役所",
        "address": "",
        "reason": "子育て支援が充実している",
        "date": "2026-05-11",
        "link": "https://news.yahoo.co.jp/articles/7fa78b10cda311b50569ecffe6f12d0ea3a1fa4e?source=rss",
        "image_url": "https://newsatcl-pctr.c.yimg.jp/t/amd-img/20260511-00000002-ibaraki-000-1-view.jpg?exp=10800"
      },
      "geometry": {
        "type": "Point",
        "coordinates": [
          140.488933333333,
          35.990540277778
        ]
      }
    },
    {
      "type": "Feature",
      "properties": {
        "category": "local",
        "trend_word": "【御殿場・小原屋】脱サラ女性が藍染の継承者へ 「みくりや染織」に新しい風(テレビ静岡NEWS)",
        "name": "小原屋 物流部",
        "address": "",
        "reason": "脱サラ女性の挑戦が地域に新しい風を吹き込むストーリーが魅力的",
        "date": "2026-05-10",
        "link": "https://news.yahoo.co.jp/articles/a33c66d57064f2210aef6edcf9759e6308d29556?source=rss",
        "image_url": "https://newsatcl-pctr.c.yimg.jp/t/amd-img/20260510-90037052-sut-000-1-view.jpg?exp=10800"
      },
      "geometry": {
        "type": "Point",
        "coordinates": [
          138.9298041896783,
          35.30500302995101
        ]
      }
    },
    {
      "type": "Feature",
      "properties": {
        "category": "local",
        "trend_word": "［沖縄days］ゆいレールと目線が同じ　沖縄・琉球銀行本店ビル(沖縄タイムス)",
        "name": "琉海/ザ ロイヤルパークホテル アイコニック 那覇",
        "address": "",
        "reason": "ゆいレールと目線が同じというユニークな体験が魅力的",
        "date": "2026-05-09",
        "link": "https://news.yahoo.co.jp/articles/8ebb1f8c22be49592818c2b304e3797825d76ea4?source=rss",
        "image_url": "https://newsatcl-pctr.c.yimg.jp/t/amd-img/20260509-01832337-okinawat-000-1-view.jpg?exp=10800"
      },
      "geometry": {
        "type": "Point",
        "coordinates": [
          127.67915,
          26.214943
        ]
      }
    },
    {
      "type": "Feature",
      "properties": {
        "category": "local",
        "trend_word": "明治時代の山車幕を「サコッシュ」にリメーク　今年から5月開催の那古観音祭礼　年番の組が“転換点”盛り上げ（千葉県）(房日新聞)",
        "name": "那古寺（那古観音）",
        "address": "",
        "reason": "歴史的価値のある祭礼とユニークなリメーク商品が魅力的",
        "date": "2026-05-09",
        "link": "https://news.yahoo.co.jp/articles/3fcafbda1436bf4eeb8e163a5f36481d2edba89e?source=rss",
        "image_url": "https://newsatcl-pctr.c.yimg.jp/t/amd-img/20260509-00010000-bonichi-000-1-view.jpg?exp=10800"
      },
      "geometry": {
        "type": "Point",
        "coordinates": [
          139.8579685,
          35.0255508
        ]
      }
    },
    {
      "type": "Feature",
      "properties": {
        "category": "local",
        "trend_word": "ハートのうちわに心込め　奈良市の唐招提寺　「宝扇」の準備大詰め(奈良新聞デジタル)",
        "name": "唐招提寺寺務所",
        "address": "",
        "reason": "風情あるうちわ作りと歴史的建造物に興味をそそる",
        "date": "2026-05-08",
        "link": "https://news.yahoo.co.jp/articles/e207070c55c075225bf0ef57d87767f86c50f4a9?source=rss",
        "image_url": "https://newsatcl-pctr.c.yimg.jp/t/amd-img/20260508-00000001-naranp-000-1-view.jpg?exp=10800"
      },
      "geometry": {
        "type": "Point",
        "coordinates": [
          135.78477975196412,
          34.67575508426385
        ]
      }
    },
    {
      "type": "Feature",
      "properties": {
        "category": "local",
        "trend_word": "ＵＳＪで大切な人に“感謝”を伝えるイベント「Thanks Love Month」母の日を前にスタート　父の日まで開催　参加者「なかなか面と向かって言えない…いい機会」(関西テレビ)",
        "name": "ユニバーサルスタジオジャパン",
        "address": "",
        "reason": "母の日・父の日を前に感謝を伝えるイベントで、普段言えない気持ちを伝える良い機会となるため",
        "date": "2026-05-08",
        "link": "https://news.yahoo.co.jp/articles/700052380c527813b9c51310f5f6e2108af250f6?source=rss",
        "image_url": "https://newsatcl-pctr.c.yimg.jp/t/amd-img/20260508-90026900-kantelev-000-1-thumb.jpg?exp=10800"
      },
      "geometry": {
        "type": "Point",
        "coordinates": [
          135.43260817856984,
          34.665809164480045
        ]
      }
    },
    {
      "type": "Feature",
      "properties": {
        "category": "local",
        "trend_word": "魚津水族館（富山）のキャラ、シャリササリ人気です(北日本新聞)",
        "name": "魚津水族館",
        "address": "",
        "reason": "ユニークなキャラクターが魅力的",
        "date": "2026-05-07",
        "link": "https://news.yahoo.co.jp/articles/02914c58702a18ad69fa02eb5fcef7f22888bea7?source=rss",
        "image_url": "https://newsatcl-pctr.c.yimg.jp/t/amd-img/20260507-00000001-kitanihon-000-1-view.jpg?exp=10800"
      },
      "geometry": {
        "type": "Point",
        "coordinates": [
          137.38865007550814,
          36.79851453518301
        ]
      }
    },
    {
      "type": "Feature",
      "properties": {
        "category": "local",
        "trend_word": "奈良の名勝・寧楽美術館　無事願い軒に菖蒲 端午の節句の風習(奈良新聞デジタル)",
        "name": "寧楽美術館",
        "address": "",
        "reason": "風情ある伝統行事と美しい菖蒲の風景が体験できるため",
        "date": "2026-05-05",
        "link": "https://news.yahoo.co.jp/articles/22315799725523e249438e973b70d388af7b208d?source=rss",
        "image_url": "https://newsatcl-pctr.c.yimg.jp/t/amd-img/20260505-00000001-naranp-000-1-view.jpg?exp=10800"
      },
      "geometry": {
        "type": "Point",
        "coordinates": [
          135.8371304,
          34.6860148
        ]
      }
    },
    {
      "type": "Feature",
      "properties": {
        "category": "local",
        "trend_word": "片道900メートルの小さな旅…愛称‟くりでん”で親しまれた『くりはら田園鉄道』の乗車会(宮城・栗原市)(ミヤギテレビ)",
        "name": "くりはら田園鉄道公園",
        "address": "",
        "reason": "懐かしい鉄道体験を求めて",
        "date": "2026-05-05",
        "link": "https://news.yahoo.co.jp/articles/01c93a05f04ca5a87c6efdcdf81a9d81b55e14ea?source=rss",
        "image_url": "https://newsatcl-pctr.c.yimg.jp/t/amd-img/20260505-02183641-mmt-000-1-thumb.jpg?exp=10800"
      },
      "geometry": {
        "type": "Point",
        "coordinates": [
          141.132589,
          38.774953
        ]
      }
    },
    {
      "type": "Feature",
      "properties": {
        "category": "local",
        "trend_word": "祇園祭発祥の地・神泉苑でひと足早く祇園囃子　浴衣姿の女性たちが鉦や笛で清らかな音色響かせる　京都市(関西テレビ)",
        "name": "神泉苑",
        "address": "",
        "reason": "伝統的な祭りの雰囲気を一足先に体験できる魅力",
        "date": "2026-05-05",
        "link": "https://news.yahoo.co.jp/articles/5d64b28b3a48fbab72ef5dd696ef2bf79b50c249?source=rss",
        "image_url": "https://newsatcl-pctr.c.yimg.jp/t/amd-img/20260505-90026836-kantelev-000-1-thumb.jpg?exp=10800"
      },
      "geometry": {
        "type": "Point",
        "coordinates": [
          135.7483686,
          35.0113819
        ]
      }
    },
    {
      "type": "Feature",
      "properties": {
        "category": "local",
        "trend_word": "【南島原そうめん】“ふし” が世界を平和に　絵本でふるさとのおいしい魅力をPR《長崎》(長崎国際テレビ)",
        "name": "南島原市深江図書館",
        "address": "",
        "reason": "絵本で紹介されたそうめんの魅力を現地で体験したい",
        "date": "2026-05-02",
        "link": "https://news.yahoo.co.jp/articles/ba48e031ccf72b275581ccf784d700d21ced82dd?source=rss"
      },
      "geometry": {
        "type": "Point",
        "coordinates": [
          130.35561160273951,
          32.733282120155145
        ]
      }
    },
    {
      "type": "Feature",
      "properties": {
        "category": "local",
        "trend_word": "【兵庫県宍粟市】定例発表実施　新公園開設・教育施策を述べる　フォトコン最優秀賞受賞者への表彰式も(ラジトピ　ラジオ関西トピックス)",
        "name": "宍粟市役所",
        "address": "",
        "reason": "新公園開設や教育施策、フォトコン表彰式など、地域活動に魅力",
        "date": "2026-05-01",
        "link": "https://news.yahoo.co.jp/articles/a70f2de31124cda56e300507deaa07e28323b0dd?source=rss"
      },
      "geometry": {
        "type": "Point",
        "coordinates": [
          134.5494657,
          35.0044166
        ]
      }
    },
    {
      "type": "Feature",
      "properties": {
        "category": "local",
        "trend_word": "「富士山の巨大壁画」をモザイクアートで再現　旧神戸新聞会館の歴史を振り返るパネル展　ミント神戸(ラジトピ　ラジオ関西トピックス)",
        "name": "ミント神戸",
        "address": "",
        "reason": "歴史的建造物のモザイクアートとパネル展で興味を引く",
        "date": "2026-04-28",
        "link": "https://news.yahoo.co.jp/articles/27b40b99666042b23fdd9bd02eef087e4e9303ea?source=rss"
      },
      "geometry": {
        "type": "Point",
        "coordinates": [
          135.1960500300461,
          34.69453103367957
        ]
      }
    },
    {
      "type": "Feature",
      "properties": {
        "category": "local",
        "trend_word": "【桜坂劇場・下地久美子の映画コレ見た？】『オールド・オーク』荒廃する町に希望の光(沖縄タイムス)",
        "name": "桜坂劇場",
        "address": "",
        "reason": "映画の舞台となる場所への訪問意欲を掻き立てる",
        "date": "2026-04-26",
        "link": "https://news.yahoo.co.jp/articles/690c48164b5d1b4766f44c27ea71042936b2c923?source=rss"
      },
      "geometry": {
        "type": "Point",
        "coordinates": [
          127.69008124819284,
          26.214989523857465
        ]
      }
    },
    {
      "type": "Feature",
      "properties": {
        "category": "local",
        "trend_word": "10月11日・12日 福井・鯖江で音楽フェス開催へ　第1弾アーティストに氣志團ら7組(みんなの経済新聞ネットワーク)",
        "name": "西山公園",
        "address": "",
        "reason": "音楽フェス開催と人気アーティストの出演",
        "date": "2026-04-25",
        "link": "https://news.yahoo.co.jp/articles/3dcb1838266e2a4d608797ddf01a1e61c52a98d1?source=rss"
      },
      "geometry": {
        "type": "Point",
        "coordinates": [
          136.18182770424394,
          35.950545657302406
        ]
      }
    }
  ]
}
